{
 "type": "FeatureCollection",
 "features": [
  {
   "type": "Feature",
   "properties": {
    "route_id": "SNU_R2",
    "name": "route 2: Cricket Ground road -> 2011 Street -> Circular Road north",
    "osm_ways": [
     369151490,
     369149867,
     547215917,
     432385377,
     369231604
    ],
    "length_m": 927,
    "start_anchor_B": [
     28.525914,
     77.57071
    ],
    "end_anchor_north": [
     28.527106,
     77.577024
    ],
    "overhang_north_m": 20,
    "note": "north end extended 20 m along the tangent of the last segment (5 Sep 2026): the road ends at a junction at B, so a straight virtual overhang keeps the s-state from clamping at the stop without adding a bend; route-1 corridor has 15 m overhangs at both ends",
    "anchor_A_route2": [
     28.525945,
     77.570652
    ],
    "anchor_B_route2": [
     28.527123,
     77.577232
    ]
   },
   "geometry": {
    "type": "LineString",
    "coordinates": [
     [
      77.570515,
      28.5259823
     ],
     [
      77.5715964,
      28.5256012
     ],
     [
      77.5716296,
      28.5255895
     ],
     [
      77.571696,
      28.5255658
     ],
     [
      77.5726266,
      28.525234
     ],
     [
      77.5726929,
      28.5252108
     ],
     [
      77.5735405,
      28.5249139
     ],
     [
      77.5736042,
      28.5248899
     ],
     [
      77.5747202,
      28.5244916
     ],
     [
      77.5750492,
      28.5243923
     ],
     [
      77.5749884,
      28.5246627
     ],
     [
      77.5749686,
      28.5247715
     ],
     [
      77.5749558,
      28.5249544
     ],
     [
      77.5749609,
      28.5250946
     ],
     [
      77.5749749,
      28.5252009
     ],
     [
      77.5749982,
      28.5253436
     ],
     [
      77.5750428,
      28.5254943
     ],
     [
      77.5750826,
      28.525629
     ],
     [
      77.5751105,
      28.5257116
     ],
     [
      77.5752035,
      28.5258862
     ],
     [
      77.5752698,
      28.5260106
     ],
     [
      77.575325,
      28.5260926
     ],
     [
      77.5753569,
      28.5261369
     ],
     [
      77.5754387,
      28.5262505
     ],
     [
      77.5754837,
      28.526313
     ],
     [
      77.5755282,
      28.5263673
     ],
     [
      77.5755902,
      28.526443
     ],
     [
      77.5756256,
      28.5264903
     ],
     [
      77.5757145,
      28.5265537
     ],
     [
      77.5758066,
      28.5266194
     ],
     [
      77.5759365,
      28.5267044
     ],
     [
      77.5760861,
      28.5267889
     ],
     [
      77.5762544,
      28.5268845
     ],
     [
      77.5763705,
      28.5269373
     ],
     [
      77.5765289,
      28.5269974
     ],
     [
      77.5766963,
      28.5270674
     ],
     [
      77.5767527,
      28.5270758
     ],
     [
      77.5769297,
      28.5271112
     ],
     [
      77.5771217,
      28.5271413
     ],
     [
      77.57726,
      28.5271558
     ],
     [
      77.57746304845631,
      28.527177088519245
     ]
    ]
   }
  }
 ]
}