{
 "type": "FeatureCollection",
 "features": [
  {
   "type": "Feature",
   "properties": {
    "name": "corridor_AJB",
    "source": "OSM ways 369217550 + 547215917",
    "length_m": 812.0,
    "J_index": 6,
    "J_cum_m": 486.7,
    "A": {
     "lat": 28.5289552,
     "lon": 77.5754485
    },
    "J": {
     "lat": 28.5248899,
     "lon": 77.5736042
    },
    "B": {
     "lat": 28.5259823,
     "lon": 77.570515
    },
    "cum_m": [
     0.0,
     74.7,
     177.8,
     182.5,
     309.1,
     406.6,
     486.7,
     493.4,
     582.6,
     589.5,
     687.7,
     694.7,
     698.2,
     812.0
    ]
   },
   "geometry": {
    "type": "LineString",
    "coordinates": [
     [
      77.5754485,
      28.5289552
     ],
     [
      77.5751678,
      28.5283307
     ],
     [
      77.5747688,
      28.5274722
     ],
     [
      77.5747508,
      28.5274329
     ],
     [
      77.5742668,
      28.5263763
     ],
     [
      77.5739155,
      28.5255554
     ],
     [
      77.5736042,
      28.5248899
     ],
     [
      77.5735405,
      28.5249139
     ],
     [
      77.5726929,
      28.5252108
     ],
     [
      77.5726266,
      28.525234
     ],
     [
      77.571696,
      28.5255658
     ],
     [
      77.5716296,
      28.5255895
     ],
     [
      77.5715964,
      28.5256012
     ],
     [
      77.570515,
      28.5259823
     ]
    ]
   }
  }
 ]
}