{"type":"FeatureCollection","name":"snu_buildings_merged","features":[{"type":"Feature","properties":{"name":"Block D","render_height":12.8,"render_min_height":0.0,"height_source":"levels","source":"osm","building":"university"},"geometry":{"type":"Polygon","coordinates":[[[77.575201,28.525545],[77.575268,28.525538],[77.575275,28.525572],[77.575669,28.525513],[77.575733,28.525504],[77.576166,28.525439],[77.576158,28.525332],[77.576319,28.525302],[77.576357,28.525388],[77.57652,28.525326],[77.576485,28.5252],[77.576463,28.525099],[77.575224,28.525282],[77.575232,28.525315],[77.575167,28.525319],[77.575201,28.525545]]]}},{"type":"Feature","properties":{"name":"Block C","render_height":12.8,"render_min_height":0.0,"height_source":"levels","source":"osm","building":"university"},"geometry":{"type":"Polygon","coordinates":[[[77.575659,28.526262],[77.575487,28.526087],[77.575532,28.526045],[77.575509,28.52602],[77.575802,28.525804],[77.575849,28.525769],[77.576198,28.525512],[77.576289,28.525589],[77.576421,28.525506],[77.576357,28.525388],[77.57652,28.525326],[77.576556,28.525394],[77.576682,28.525553],[77.576102,28.525986],[77.576026,28.526043],[77.575735,28.526261],[77.575713,28.526231],[77.575659,28.526262]]]}},{"type":"Feature","properties":{"name":"Central Library","render_height":12.0,"render_min_height":0.0,"height_source":"height","source":"osm","building":"yes"},"geometry":{"type":"Polygon","coordinates":[[[77.573718,28.525007],[77.57382,28.52508],[77.573933,28.525134],[77.574048,28.525169],[77.574166,28.525193],[77.574292,28.525198],[77.574397,28.52519],[77.574517,28.525164],[77.574622,28.525124],[77.574711,28.525077],[77.574791,28.525028],[77.574831,28.524992],[77.57477,28.524936],[77.574692,28.524891],[77.574603,28.524844],[77.574501,28.524813],[77.574392,28.52479],[77.574273,28.524785],[77.574131,28.52479],[77.574037,28.524809],[77.573917,28.524851],[77.573834,28.524896],[77.573764,28.524952],[77.573718,28.525007]]]}},{"type":"Feature","properties":{"name":"Hostel 1B","render_height":19.2,"render_min_height":0.0,"height_source":"levels","source":"osm","building":"dormitory"},"geometry":{"type":"Polygon","coordinates":[[[77.57275,28.524299],[77.572855,28.524256],[77.572984,28.524233],[77.573049,28.524235],[77.573115,28.524238],[77.573228,28.524282],[77.573316,28.524348],[77.573424,28.524261],[77.57337,28.524188],[77.573295,28.52416],[77.57315,28.524113],[77.573166,28.523948],[77.573102,28.523898],[77.573021,28.523927],[77.572994,28.524096],[77.572906,28.524101],[77.572783,28.524115],[77.572683,28.524172],[77.57275,28.524299]]]}},{"type":"Feature","properties":{"name":"Dining Hall 1","render_height":6.4,"render_min_height":0.0,"height_source":"default","source":"osm","building":"yes"},"geometry":{"type":"Polygon","coordinates":[[[77.573486,28.524062],[77.573573,28.523883],[77.573618,28.523887],[77.573648,28.523818],[77.573693,28.523716],[77.573649,28.523675],[77.573694,28.523573],[77.573417,28.523529],[77.573376,28.523597],[77.573344,28.523592],[77.573295,28.523697],[77.573262,28.523767],[77.573293,28.523785],[77.573234,28.523917],[77.573486,28.524062]]]}},{"type":"Feature","properties":{"name":"Hostel 1A","render_height":19.2,"render_min_height":0.0,"height_source":"levels","source":"osm","building":"dormitory"},"geometry":{"type":"Polygon","coordinates":[[[77.572722,28.524557],[77.572831,28.524637],[77.572933,28.524673],[77.572978,28.52468],[77.573034,28.52469],[77.573184,28.524668],[77.573292,28.524627],[77.573359,28.524741],[77.573272,28.524794],[77.573063,28.524816],[77.573034,28.524977],[77.573015,28.524979],[77.572999,28.525],[77.572948,28.525014],[77.572913,28.524988],[77.572914,28.524967],[77.572891,28.524967],[77.572905,28.524803],[77.572717,28.524723],[77.572685,28.524714],[77.572645,28.524677],[77.572625,28.524653],[77.572722,28.524557]]]}},{"type":"Feature","properties":{"name":"Hostel 1C","render_height":19.2,"render_min_height":0.0,"height_source":"levels","source":"osm","building":"dormitory"},"geometry":{"type":"Polygon","coordinates":[[[77.572609,28.524116],[77.572485,28.524012],[77.572392,28.524115],[77.572412,28.524136],[77.572329,28.524311],[77.57214,28.524287],[77.572128,28.524324],[77.572082,28.524325],[77.572085,28.524383],[77.572131,28.524381],[77.572128,28.524423],[77.572299,28.52444],[77.572336,28.524641],[77.572324,28.524644],[77.572329,28.524707],[77.572372,28.524777],[77.572525,28.524704],[77.572471,28.524617],[77.572442,28.524441],[77.572444,28.524406],[77.572446,28.52437],[77.572498,28.524258],[77.572529,28.524186],[77.572609,28.524116]]]}},{"type":"Feature","properties":{"name":"Shiv Nadar University Post Office","render_height":6.4,"render_min_height":0.0,"height_source":"default","source":"osm","building":"yes"},"geometry":{"type":"Polygon","coordinates":[[[77.576025,28.532933],[77.575951,28.532844],[77.576055,28.532777],[77.576129,28.532866],[77.576025,28.532933]]]}},{"type":"Feature","properties":{"name":"Block B","render_height":12.8,"render_min_height":0.0,"height_source":"levels","source":"osm","building":"university"},"geometry":{"type":"Polygon","coordinates":[[[77.57602,28.526605],[77.576248,28.526734],[77.576301,28.526677],[77.576325,28.526695],[77.576538,28.526446],[77.576588,28.526391],[77.576645,28.526325],[77.576636,28.526292],[77.576712,28.526245],[77.576757,28.526213],[77.576791,28.526177],[77.576821,28.526137],[77.576842,28.526102],[77.576904,28.526117],[77.577056,28.525781],[77.576818,28.525649],[77.576321,28.526191],[77.576267,28.526251],[77.576038,28.526517],[77.576074,28.526543],[77.57602,28.526605]]]}},{"type":"Feature","properties":{"name":"Block A","render_height":12.8,"render_min_height":0.0,"height_source":"levels","source":"osm","building":"university"},"geometry":{"type":"Polygon","coordinates":[[[77.576904,28.526117],[77.576956,28.526129],[77.576941,28.526148],[77.576923,28.526183],[77.576913,28.526246],[77.576914,28.52631],[77.576931,28.526382],[77.576903,28.526397],[77.57689,28.526516],[77.576881,28.526593],[77.576835,28.526894],[77.576893,28.5269],[77.576877,28.52696],[77.577115,28.526983],[77.577124,28.526923],[77.577147,28.526923],[77.577333,28.525841],[77.577056,28.525781],[77.576904,28.526117]]]}},{"type":"Feature","properties":{"name":"Hostel 2A","render_height":19.2,"render_min_height":0.0,"height_source":"levels","source":"osm","building":"dormitory"},"geometry":{"type":"Polygon","coordinates":[[[77.572924,28.523437],[77.572946,28.523449],[77.57294,28.523463],[77.572954,28.523506],[77.573017,28.52351],[77.573027,28.523494],[77.573053,28.523506],[77.57315,28.523357],[77.57329,28.523398],[77.573348,28.52341],[77.573405,28.523412],[77.573472,28.523393],[77.57346,28.52327],[77.573386,28.523277],[77.573211,28.523245],[77.573156,28.523215],[77.573109,28.523187],[77.573054,28.523143],[77.572994,28.52308],[77.572955,28.523013],[77.57283,28.523059],[77.572841,28.523089],[77.572828,28.523094],[77.572846,28.523129],[77.572873,28.523165],[77.572944,28.52322],[77.57302,28.523291],[77.572924,28.523437]]]}},{"type":"Feature","properties":{"name":"Hostel 2B","render_height":19.2,"render_min_height":0.0,"height_source":"levels","source":"osm","building":"dormitory"},"geometry":{"type":"Polygon","coordinates":[[[77.573105,28.522777],[77.573245,28.52277],[77.573358,28.522794],[77.57341,28.52282],[77.573445,28.522838],[77.573528,28.522904],[77.573591,28.522975],[77.573611,28.523022],[77.573745,28.522976],[77.573729,28.52295],[77.573745,28.522943],[77.573722,28.522895],[77.573682,28.522848],[77.573629,28.522806],[77.573558,28.522742],[77.573649,28.522598],[77.573629,28.522579],[77.573605,28.52253],[77.573529,28.522535],[77.573501,28.52253],[77.57341,28.522672],[77.573223,28.522628],[77.573097,28.522633],[77.573105,28.522777]]]}},{"type":"Feature","properties":{"name":"Research Annexe","render_height":12.8,"render_min_height":0.0,"height_source":"default","source":"osm","building":"university"},"geometry":{"type":"Polygon","coordinates":[[[77.578092,28.527541],[77.57819,28.527577],[77.578282,28.527593],[77.578399,28.52761],[77.578507,28.527625],[77.578627,28.527634],[77.578752,28.527627],[77.578855,28.527621],[77.578937,28.52761],[77.579035,28.527589],[77.579115,28.527572],[77.579014,28.52725],[77.578925,28.527277],[77.578846,28.527288],[77.578747,28.527292],[77.578649,28.527296],[77.578546,28.527292],[77.578435,28.527281],[77.578341,28.52725],[77.57827,28.527235],[77.578212,28.527216],[77.578092,28.527541]]]}},{"type":"Feature","properties":{"name":null,"render_height":6.4,"render_min_height":0.0,"height_source":"default","source":"osm","building":"yes"},"geometry":{"type":"Polygon","coordinates":[[[77.57672,28.527807],[77.576805,28.527788],[77.576862,28.527788],[77.576917,28.527798],[77.576961,28.527816],[77.576977,28.527828],[77.577066,28.527253],[77.577004,28.527262],[77.576965,28.527261],[77.576905,28.527251],[77.576854,28.527234],[77.576813,28.527211],[77.57672,28.527807]]]}},{"type":"Feature","properties":{"name":"Hostel 2C","render_height":19.2,"render_min_height":0.0,"height_source":"levels","source":"osm","building":"dormitory"},"geometry":{"type":"Polygon","coordinates":[[[77.572994,28.522422],[77.573061,28.522562],[77.572964,28.522604],[77.572889,28.522663],[77.57282,28.522724],[77.572767,28.522781],[77.572735,28.522881],[77.572714,28.522946],[77.572727,28.523064],[77.572546,28.523081],[77.572563,28.522962],[77.572585,28.522958],[77.572638,28.522756],[77.572619,28.522734],[77.572599,28.522744],[77.572491,28.522686],[77.572497,28.522652],[77.572472,28.522621],[77.572492,28.522592],[77.57253,28.522602],[77.572557,28.522571],[77.572672,28.522627],[77.57267,28.522644],[77.572688,28.522655],[77.572874,28.522512],[77.572856,28.522495],[77.572919,28.522447],[77.572994,28.522422]]]}},{"type":"Feature","properties":{"name":"Hostel 3C","render_height":19.2,"render_min_height":0.0,"height_source":"levels","source":"osm","building":"dormitory"},"geometry":{"type":"Polygon","coordinates":[[[77.571379,28.525161],[77.571547,28.525194],[77.571566,28.525144],[77.571558,28.525064],[77.571539,28.525059],[77.571517,28.52487],[77.571685,28.524803],[77.571678,28.52477],[77.571709,28.524751],[77.571709,28.524717],[77.571686,28.524702],[77.571658,28.524705],[77.571631,28.524679],[77.571452,28.524739],[77.571314,28.524577],[77.571325,28.524562],[77.57122,28.52448],[77.571127,28.524609],[77.571217,28.524651],[77.571355,28.524814],[77.571382,28.524891],[77.571403,28.525049],[77.571379,28.525161]]]}},{"type":"Feature","properties":{"name":"Hostel 3A","render_height":19.2,"render_min_height":0.0,"height_source":"levels","source":"osm","building":"dormitory"},"geometry":{"type":"Polygon","coordinates":[[[77.570915,28.525379],[77.570722,28.525402],[77.570638,28.525393],[77.570638,28.525375],[77.570603,28.525371],[77.570637,28.525245],[77.570711,28.525253],[77.570771,28.525259],[77.570831,28.525262],[77.570904,28.525249],[77.570979,28.525227],[77.571017,28.525203],[77.571107,28.525134],[77.571172,28.525057],[77.571299,28.525129],[77.571285,28.525149],[77.571303,28.525159],[77.571254,28.525215],[77.571076,28.525347],[77.571134,28.525476],[77.571119,28.525514],[77.571088,28.525546],[77.571043,28.525544],[77.571005,28.525531],[77.570915,28.525379]]]}},{"type":"Feature","properties":{"name":"Hostel 3B","render_height":19.2,"render_min_height":0.0,"height_source":"levels","source":"osm","building":"dormitory"},"geometry":{"type":"Polygon","coordinates":[[[77.570518,28.525004],[77.570582,28.52495],[77.570655,28.524887],[77.57071,28.524849],[77.570797,28.524825],[77.570886,28.524808],[77.570971,28.524801],[77.571058,28.524808],[77.571107,28.524695],[77.571076,28.524695],[77.571076,28.524676],[77.571011,28.524667],[77.570957,28.524669],[77.57088,28.524679],[77.570775,28.524691],[77.570706,28.52454],[77.570682,28.524547],[77.570669,28.524528],[77.570625,28.524519],[77.570593,28.52455],[77.570601,28.524575],[77.570574,28.524582],[77.570642,28.524739],[77.570476,28.524847],[77.570419,28.524908],[77.570424,28.524919],[77.570401,28.524938],[77.570518,28.525004]]]}},{"type":"Feature","properties":{"name":null,"render_height":12.8,"render_min_height":0.0,"height_source":"default","source":"osm","building":"university"},"geometry":{"type":"Polygon","coordinates":[[[77.575802,28.525804],[77.575755,28.525751],[77.575724,28.525708],[77.575699,28.525655],[77.575682,28.525595],[77.575673,28.525556],[77.575669,28.525513],[77.575733,28.525504],[77.575735,28.525541],[77.575742,28.525588],[77.575757,28.525629],[77.575777,28.525674],[77.575811,28.525722],[77.575849,28.525769],[77.575802,28.525804]]]}},{"type":"Feature","properties":{"name":null,"render_height":12.8,"render_min_height":0.0,"height_source":"default","source":"osm","building":"university"},"geometry":{"type":"Polygon","coordinates":[[[77.576538,28.526446],[77.57658,28.526483],[77.576641,28.526528],[77.576724,28.526566],[77.576799,28.526584],[77.576881,28.526593],[77.57689,28.526516],[77.57681,28.526509],[77.576744,28.526488],[77.576668,28.526459],[77.576588,28.526391],[77.576538,28.526446]]]}},{"type":"Feature","properties":{"name":"Dining Hall 2","render_height":6.4,"render_min_height":0.0,"height_source":"default","source":"osm","building":"yes"},"geometry":{"type":"Polygon","coordinates":[[[77.570144,28.52423],[77.569981,28.524255],[77.569967,28.524322],[77.569972,28.524372],[77.570001,28.524426],[77.570026,28.52446],[77.570061,28.524482],[77.570094,28.524559],[77.570127,28.524636],[77.570128,28.524692],[77.570134,28.524728],[77.570153,28.52477],[77.570175,28.524804],[77.57047,28.524638],[77.570445,28.524579],[77.57048,28.524544],[77.570487,28.52452],[77.570464,28.524471],[77.570418,28.524373],[77.570401,28.524364],[77.570384,28.524359],[77.570324,28.524239],[77.570167,28.524263],[77.570144,28.52423]]]}},{"type":"Feature","properties":{"name":null,"render_height":9.6,"render_min_height":0.0,"height_source":"levels","source":"osm","building":"university"},"geometry":{"type":"Polygon","coordinates":[[[77.576026,28.526043],[77.576089,28.526108],[77.57615,28.526161],[77.576202,28.526204],[77.576267,28.526251],[77.576321,28.526191],[77.576258,28.526149],[77.576213,28.526107],[77.576167,28.526067],[77.576102,28.525986],[77.576026,28.526043]]]}},{"type":"Feature","properties":{"name":"Indoor Sports Complex","render_height":6.4,"render_min_height":0.0,"height_source":"default","source":"osm","building":"yes"},"geometry":{"type":"Polygon","coordinates":[[[77.570507,28.521743],[77.571477,28.521396],[77.571208,28.520815],[77.570238,28.521162],[77.570507,28.521743]]]}},{"type":"Feature","properties":{"name":null,"render_height":4.0,"render_min_height":0.0,"height_source":"default","source":"osm","building":"greenhouse"},"geometry":{"type":"Polygon","coordinates":[[[77.575906,28.531971],[77.576011,28.531921],[77.575872,28.531735],[77.575776,28.531793],[77.575906,28.531971]]]}},{"type":"Feature","properties":{"name":null,"render_height":4.0,"render_min_height":0.0,"height_source":"default","source":"osm","building":"greenhouse"},"geometry":{"type":"Polygon","coordinates":[[[77.576236,28.531789],[77.576346,28.531733],[77.575989,28.531382],[77.575879,28.531443],[77.576236,28.531789]]]}},{"type":"Feature","properties":{"name":null,"render_height":6.4,"render_min_height":0.0,"height_source":"default","source":"osm","building":"yes"},"geometry":{"type":"Polygon","coordinates":[[[77.580295,28.529635],[77.58017,28.529498],[77.58034,28.529379],[77.580464,28.529516],[77.580295,28.529635]]]}},{"type":"Feature","properties":{"name":"Entrance Security Office","render_height":6.4,"render_min_height":0.0,"height_source":"default","source":"osm","building":"yes"},"geometry":{"type":"Polygon","coordinates":[[[77.576243,28.533451],[77.576301,28.533413],[77.576266,28.533373],[77.576209,28.533411],[77.576243,28.533451]]]}},{"type":"Feature","properties":{"name":null,"render_height":6.4,"render_min_height":0.0,"height_source":"default","source":"osm","building":"yes"},"geometry":{"type":"Polygon","coordinates":[[[77.574107,28.523607],[77.574329,28.523242],[77.575098,28.523604],[77.574974,28.523808],[77.574921,28.523783],[77.574887,28.52384],[77.574757,28.523779],[77.574789,28.523727],[77.574428,28.523557],[77.574317,28.523645],[77.574407,28.52384],[77.574313,28.523873],[77.574214,28.523657],[77.574107,28.523607]]]}},{"type":"Feature","properties":{"name":null,"render_height":6.4,"render_min_height":0.0,"height_source":"default","source":"osm","building":"yes"},"geometry":{"type":"Polygon","coordinates":[[[77.573352,28.522553],[77.573209,28.52248],[77.573252,28.522415],[77.573395,28.522487],[77.573352,28.522553]]]}},{"type":"Feature","properties":{"name":"Health and wellness centre, SNU","render_height":6.4,"render_min_height":0.0,"height_source":"default","source":"osm","building":"yes"},"geometry":{"type":"Polygon","coordinates":[[[77.572526,28.527176],[77.572478,28.527071],[77.572773,28.526966],[77.572821,28.527071],[77.572526,28.527176]]]}},{"type":"Feature","properties":{"name":"Pharmacy","render_height":6.4,"render_min_height":0.0,"height_source":"default","source":"osm","building":"yes"},"geometry":{"type":"Polygon","coordinates":[[[77.572658,28.527593],[77.572623,28.527527],[77.572739,28.52748],[77.572773,28.527545],[77.572658,28.527593]]]}},{"type":"Feature","properties":{"name":"Auctus Supermarket","render_height":6.4,"render_min_height":0.0,"height_source":"default","source":"osm","building":"yes"},"geometry":{"type":"Polygon","coordinates":[[[77.5727,28.527309],[77.572774,28.527476],[77.572946,28.527417],[77.572871,28.52725],[77.5727,28.527309]]]}},{"type":"Feature","properties":{"name":"Management Block","render_height":12.8,"render_min_height":0.0,"height_source":"default","source":"osm","building":"university"},"geometry":{"type":"Polygon","coordinates":[[[77.573934,28.528663],[77.575008,28.528277],[77.574697,28.527611],[77.573623,28.527997],[77.573934,28.528663]]]}},{"type":"Feature","properties":{"name":null,"render_height":6.4,"render_min_height":0.0,"height_source":"default","source":"osm","building":"yes"},"geometry":{"type":"Polygon","coordinates":[[[77.577841,28.530924],[77.577919,28.530996],[77.578018,28.530914],[77.57794,28.530842],[77.577841,28.530924]]]}},{"type":"Feature","properties":{"name":null,"render_height":6.4,"render_min_height":0.0,"height_source":"default","source":"osm","building":"yes"},"geometry":{"type":"Polygon","coordinates":[[[77.578903,28.528333],[77.579349,28.528185],[77.579233,28.527937],[77.578794,28.52809],[77.578903,28.528333]]]}},{"type":"Feature","properties":{"name":null,"render_height":12.8,"render_min_height":0.0,"height_source":"default","source":"osm","building":"university"},"geometry":{"type":"Polygon","coordinates":[[[77.568354,28.522412],[77.568657,28.522307],[77.568514,28.521988],[77.568211,28.522093],[77.568354,28.522412]]]}},{"type":"Feature","properties":{"name":null,"render_height":12.8,"render_min_height":0.0,"height_source":"default","source":"osm","building":"university"},"geometry":{"type":"Polygon","coordinates":[[[77.569932,28.520656],[77.569874,28.520531],[77.5693,28.520735],[77.569358,28.52086],[77.569932,28.520656]]]}},{"type":"Feature","properties":{"name":null,"render_height":19.2,"render_min_height":0.0,"height_source":"default","source":"osm","building":"dormitory"},"geometry":{"type":"Polygon","coordinates":[[[77.572859,28.518656],[77.573467,28.518393],[77.573534,28.518513],[77.572926,28.518776],[77.572859,28.518656]]]}},{"type":"Feature","properties":{"name":null,"render_height":19.2,"render_min_height":0.0,"height_source":"default","source":"osm","building":"dormitory"},"geometry":{"type":"Polygon","coordinates":[[[77.572789,28.518229],[77.573062,28.518425],[77.572958,28.518536],[77.572686,28.51834],[77.572789,28.518229]]]}},{"type":"Feature","properties":{"name":null,"render_height":19.2,"render_min_height":0.0,"height_source":"default","source":"osm","building":"dormitory"},"geometry":{"type":"Polygon","coordinates":[[[77.57259,28.518427],[77.572862,28.518623],[77.572759,28.518734],[77.572487,28.518538],[77.57259,28.518427]]]}},{"type":"Feature","properties":{"name":null,"render_height":19.2,"render_min_height":0.0,"height_source":"default","source":"osm","building":"dormitory"},"geometry":{"type":"Polygon","coordinates":[[[77.570582,28.523235],[77.570692,28.523096],[77.570778,28.523145],[77.570926,28.523336],[77.5711,28.523287],[77.571164,28.523421],[77.570998,28.523482],[77.571044,28.523735],[77.571025,28.523805],[77.570842,28.523772],[77.570853,28.523704],[77.570834,28.523513],[77.570805,28.523445],[77.570663,28.523282],[77.570582,28.523235]]]}},{"type":"Feature","properties":{"name":null,"render_height":19.2,"render_min_height":0.0,"height_source":"default","source":"osm","building":"dormitory"},"geometry":{"type":"Polygon","coordinates":[[[77.570287,28.522225],[77.570397,28.522086],[77.570483,28.522136],[77.570645,28.522331],[77.570805,28.522277],[77.570869,28.522416],[77.570703,28.522473],[77.570748,28.522725],[77.57073,28.522795],[77.570547,28.522762],[77.570558,28.522694],[77.570539,28.522503],[77.57051,28.522435],[77.570368,28.522272],[77.570287,28.522225]]]}},{"type":"Feature","properties":{"name":null,"render_height":19.2,"render_min_height":0.0,"height_source":"default","source":"osm","building":"dormitory"},"geometry":{"type":"Polygon","coordinates":[[[77.570396,28.522629],[77.570471,28.522728],[77.570233,28.522886],[77.5703,28.523021],[77.570116,28.523092],[77.570054,28.522964],[77.569767,28.523],[77.569687,28.522982],[77.569727,28.522822],[77.569821,28.522846],[77.570022,28.52282],[77.570101,28.522795],[77.570396,28.522629]]]}},{"type":"Feature","properties":{"name":null,"render_height":19.2,"render_min_height":0.0,"height_source":"default","source":"osm","building":"dormitory"},"geometry":{"type":"Polygon","coordinates":[[[77.569665,28.52267],[77.569516,28.522583],[77.56957,28.522513],[77.569793,28.522382],[77.569725,28.522229],[77.569926,28.522161],[77.569994,28.522322],[77.570289,28.522291],[77.570306,28.522412],[77.569982,28.522449],[77.569904,28.522475],[77.569718,28.522599],[77.569665,28.52267]]]}},{"type":"Feature","properties":{"name":null,"render_height":19.2,"render_min_height":0.0,"height_source":"default","source":"osm","building":"dormitory"},"geometry":{"type":"Polygon","coordinates":[[[77.569978,28.523704],[77.56982,28.523607],[77.569877,28.523531],[77.570111,28.523398],[77.570052,28.523258],[77.57024,28.523195],[77.570309,28.523351],[77.570602,28.523316],[77.57062,28.523446],[77.570295,28.523483],[77.570217,28.523509],[77.570032,28.523633],[77.569978,28.523704]]]}},{"type":"Feature","properties":{"name":null,"render_height":19.2,"render_min_height":0.0,"height_source":"default","source":"osm","building":"dormitory"},"geometry":{"type":"Polygon","coordinates":[[[77.570684,28.523631],[77.570777,28.523742],[77.57054,28.523907],[77.570601,28.524036],[77.570431,28.524095],[77.57037,28.523969],[77.570102,28.524001],[77.569991,28.523977],[77.570039,28.523829],[77.570141,28.523861],[77.570339,28.523835],[77.570416,28.523807],[77.570684,28.523631]]]}},{"type":"Feature","properties":{"name":"Dining Hall 3","render_height":6.4,"render_min_height":0.0,"height_source":"default","source":"osm","building":"yes"},"geometry":{"type":"Polygon","coordinates":[[[77.5696,28.522967],[77.569494,28.522977],[77.569511,28.523057],[77.569456,28.523056],[77.569531,28.523223],[77.5695,28.523252],[77.569522,28.523317],[77.56954,28.523359],[77.569572,28.523411],[77.569615,28.523416],[77.569675,28.523542],[77.569915,28.523396],[77.569878,28.523307],[77.569895,28.523291],[77.569817,28.523132],[77.56979,28.523128],[77.569752,28.523045],[77.569615,28.523043],[77.5696,28.522967]]]}},{"type":"Feature","properties":{"name":null,"render_height":12.8,"render_min_height":0.0,"height_source":"default","source":"osm","building":"university"},"geometry":{"type":"Polygon","coordinates":[[[77.570077,28.523675],[77.57023,28.52362],[77.570243,28.523649],[77.570266,28.52364],[77.570289,28.523688],[77.570264,28.523697],[77.570278,28.523727],[77.570126,28.523781],[77.570077,28.523675]]]}},{"type":"Feature","properties":{"name":null,"render_height":12.8,"render_min_height":0.0,"height_source":"default","source":"osm","building":"university"},"geometry":{"type":"Polygon","coordinates":[[[77.569773,28.522675],[77.569927,28.52262],[77.56994,28.522649],[77.569963,28.52264],[77.569985,28.522689],[77.569961,28.522697],[77.569975,28.522727],[77.569823,28.522782],[77.569773,28.522675]]]}},{"type":"Feature","properties":{"name":null,"render_height":19.2,"render_min_height":0.0,"height_source":"default","source":"osm","building":"dormitory"},"geometry":{"type":"Polygon","coordinates":[[[77.572274,28.5215],[77.572277,28.52133],[77.572379,28.521329],[77.572638,28.521412],[77.572736,28.521289],[77.572878,28.521372],[77.572776,28.521501],[77.572974,28.521688],[77.573003,28.521756],[77.572831,28.521818],[77.572796,28.521756],[77.57266,28.521607],[77.572592,28.521564],[77.57237,28.521499],[77.572274,28.5215]]]}},{"type":"Feature","properties":{"name":null,"render_height":19.2,"render_min_height":0.0,"height_source":"default","source":"osm","building":"dormitory"},"geometry":{"type":"Polygon","coordinates":[[[77.572722,28.521964],[77.572722,28.522133],[77.57262,28.522135],[77.572359,28.522056],[77.572263,28.52218],[77.57212,28.522098],[77.57222,28.521968],[77.572019,28.521784],[77.571989,28.521716],[77.57216,28.521652],[77.572196,28.521714],[77.572335,28.521861],[77.572404,28.521903],[77.572626,28.521965],[77.572722,28.521964]]]}},{"type":"Feature","properties":{"name":null,"render_height":19.2,"render_min_height":0.0,"height_source":"default","source":"osm","building":"dormitory"},"geometry":{"type":"Polygon","coordinates":[[[77.571819,28.520074],[77.571928,28.519935],[77.572014,28.519984],[77.572177,28.52018],[77.572336,28.520125],[77.572401,28.520264],[77.572234,28.520321],[77.57228,28.520573],[77.572261,28.520644],[77.572079,28.520611],[77.572089,28.520543],[77.572071,28.520352],[77.572041,28.520283],[77.571899,28.520121],[77.571819,28.520074]]]}},{"type":"Feature","properties":{"name":null,"render_height":19.2,"render_min_height":0.0,"height_source":"default","source":"osm","building":"dormitory"},"geometry":{"type":"Polygon","coordinates":[[[77.571947,28.520677],[77.571837,28.520816],[77.571751,28.520767],[77.571589,28.520571],[77.57143,28.520625],[77.571365,28.520486],[77.571532,28.520429],[77.571486,28.520177],[77.571505,28.520107],[77.571687,28.52014],[77.571676,28.520208],[77.571695,28.520399],[77.571725,28.520467],[77.571867,28.52063],[77.571947,28.520677]]]}},{"type":"Feature","properties":{"name":null,"render_height":19.2,"render_min_height":0.0,"height_source":"default","source":"osm","building":"dormitory"},"geometry":{"type":"Polygon","coordinates":[[[77.571441,28.520162],[77.57128,28.520069],[77.571334,28.519993],[77.571552,28.519845],[77.571487,28.519706],[77.571643,28.519646],[77.571712,28.51979],[77.571997,28.519744],[77.572078,28.519758],[77.572046,28.51992],[77.571968,28.519912],[77.571751,28.519933],[77.571674,28.519961],[77.571493,28.52009],[77.571441,28.520162]]]}},{"type":"Feature","properties":{"name":null,"render_height":6.4,"render_min_height":0.0,"height_source":"default","source":"osm","building":"yes"},"geometry":{"type":"Polygon","coordinates":[[[77.573787,28.519251],[77.573846,28.51923],[77.573893,28.519334],[77.573835,28.519355],[77.573787,28.519251]]]}},{"type":"Feature","properties":{"name":null,"render_height":6.4,"render_min_height":0.0,"height_source":"default","source":"osm","building":"yes"},"geometry":{"type":"Polygon","coordinates":[[[77.57803,28.530713],[77.578272,28.53092],[77.578319,28.530877],[77.57828,28.530844],[77.578381,28.530753],[77.578428,28.530791],[77.578436,28.530795],[77.578446,28.530795],[77.578455,28.53079],[77.578458,28.530781],[77.578454,28.530772],[77.578407,28.530733],[77.578517,28.53064],[77.578551,28.530669],[77.578594,28.530629],[77.578352,28.530422],[77.57803,28.530713]]]}},{"type":"Feature","properties":{"name":null,"render_height":6.4,"render_min_height":0.0,"height_source":"default","source":"osm","building":"yes"},"geometry":{"type":"Polygon","coordinates":[[[77.577907,28.532175],[77.577423,28.531759],[77.577651,28.531554],[77.577929,28.531793],[77.578493,28.531285],[77.578592,28.531371],[77.578533,28.531425],[77.57859,28.531474],[77.578468,28.531584],[77.578416,28.531539],[77.57805,28.531868],[77.578152,28.531955],[77.577907,28.532175]]]}},{"type":"Feature","properties":{"name":null,"render_height":6.4,"render_min_height":0.0,"height_source":"default","source":"osm","building":"yes"},"geometry":{"type":"Polygon","coordinates":[[[77.576633,28.53314],[77.576375,28.532895],[77.57646,28.532826],[77.576718,28.533071],[77.576633,28.53314]]]}},{"type":"Feature","properties":{"name":null,"render_height":6.4,"render_min_height":0.0,"height_source":"ms","source":"ms","building":"ms"},"geometry":{"type":"Polygon","coordinates":[[[77.578986,28.532753],[77.579028,28.532807],[77.578769,28.532965],[77.578726,28.532911],[77.578986,28.532753]]]}},{"type":"Feature","properties":{"name":null,"render_height":6.4,"render_min_height":0.0,"height_source":"ms","source":"ms","building":"ms"},"geometry":{"type":"Polygon","coordinates":[[[77.56559,28.530695],[77.565503,28.530741],[77.565428,28.530631],[77.565515,28.530585],[77.56559,28.530695]]]}},{"type":"Feature","properties":{"name":null,"render_height":6.4,"render_min_height":0.0,"height_source":"ms","source":"ms","building":"ms"},"geometry":{"type":"Polygon","coordinates":[[[77.56941,28.523791],[77.569274,28.523836],[77.569182,28.523619],[77.569318,28.523574],[77.56941,28.523791]]]}},{"type":"Feature","properties":{"name":null,"render_height":6.4,"render_min_height":0.0,"height_source":"ms","source":"ms","building":"ms"},"geometry":{"type":"Polygon","coordinates":[[[77.573429,28.527602],[77.573542,28.527583],[77.573553,28.527631],[77.573309,28.527671],[77.573209,28.527206],[77.573444,28.527167],[77.573491,28.527384],[77.573386,28.527402],[77.573429,28.527602]]]}},{"type":"Feature","properties":{"name":null,"render_height":6.4,"render_min_height":0.0,"height_source":"ms","source":"ms","building":"ms"},"geometry":{"type":"Polygon","coordinates":[[[77.565202,28.531221],[77.565237,28.531289],[77.565084,28.531351],[77.565036,28.531258],[77.565244,28.531175],[77.565256,28.531199],[77.565202,28.531221]]]}},{"type":"Feature","properties":{"name":null,"render_height":6.4,"render_min_height":0.0,"height_source":"ms","source":"ms","building":"ms"},"geometry":{"type":"Polygon","coordinates":[[[77.565107,28.53183],[77.564963,28.531898],[77.564907,28.531807],[77.565051,28.531739],[77.565107,28.53183]]]}},{"type":"Feature","properties":{"name":null,"render_height":6.4,"render_min_height":0.0,"height_source":"ms","source":"ms","building":"ms"},"geometry":{"type":"Polygon","coordinates":[[[77.572814,28.527584],[77.57269,28.52763],[77.572658,28.527564],[77.572782,28.527517],[77.572814,28.527584]]]}},{"type":"Feature","properties":{"name":null,"render_height":6.4,"render_min_height":0.0,"height_source":"ms","source":"ms","building":"ms"},"geometry":{"type":"Polygon","coordinates":[[[77.569345,28.522836],[77.569429,28.523058],[77.569361,28.523078],[77.569278,28.522856],[77.569345,28.522836]]]}},{"type":"Feature","properties":{"name":null,"render_height":6.4,"render_min_height":0.0,"height_source":"ms","source":"ms","building":"ms"},"geometry":{"type":"Polygon","coordinates":[[[77.564265,28.51611],[77.564319,28.516077],[77.56437,28.516142],[77.564316,28.516175],[77.564265,28.51611]]]}},{"type":"Feature","properties":{"name":null,"render_height":6.4,"render_min_height":0.0,"height_source":"ms","source":"ms","building":"ms"},"geometry":{"type":"Polygon","coordinates":[[[77.574975,28.518344],[77.575463,28.518498],[77.575361,28.518748],[77.574873,28.518594],[77.574975,28.518344]]]}},{"type":"Feature","properties":{"name":null,"render_height":6.4,"render_min_height":0.0,"height_source":"ms","source":"ms","building":"ms"},"geometry":{"type":"Polygon","coordinates":[[[77.579516,28.530257],[77.579418,28.53034],[77.57932,28.530251],[77.579418,28.530168],[77.579516,28.530257]]]}},{"type":"Feature","properties":{"name":null,"render_height":6.4,"render_min_height":0.0,"height_source":"ms","source":"ms","building":"ms"},"geometry":{"type":"Polygon","coordinates":[[[77.56627,28.513905],[77.566346,28.513967],[77.566311,28.514001],[77.566234,28.513939],[77.56627,28.513905]]]}},{"type":"Feature","properties":{"name":null,"render_height":6.4,"render_min_height":0.0,"height_source":"ms","source":"ms","building":"ms"},"geometry":{"type":"Polygon","coordinates":[[[77.569499,28.524198],[77.569615,28.524168],[77.56964,28.524244],[77.569524,28.524274],[77.569499,28.524198]]]}},{"type":"Feature","properties":{"name":null,"render_height":6.4,"render_min_height":0.0,"height_source":"ms","source":"ms","building":"ms"},"geometry":{"type":"Polygon","coordinates":[[[77.56786,28.514388],[77.567962,28.514352],[77.568002,28.51444],[77.5679,28.514475],[77.56786,28.514388]]]}},{"type":"Feature","properties":{"name":null,"render_height":6.4,"render_min_height":0.0,"height_source":"ms","source":"ms","building":"ms"},"geometry":{"type":"Polygon","coordinates":[[[77.581152,28.532076],[77.581113,28.531973],[77.581372,28.531898],[77.581411,28.532001],[77.581152,28.532076]]]}},{"type":"Feature","properties":{"name":null,"render_height":6.4,"render_min_height":0.0,"height_source":"ms","source":"ms","building":"ms"},"geometry":{"type":"Polygon","coordinates":[[[77.581336,28.530991],[77.581378,28.531029],[77.581235,28.531148],[77.581193,28.53111],[77.581336,28.530991]]]}},{"type":"Feature","properties":{"name":null,"render_height":6.4,"render_min_height":0.0,"height_source":"ms","source":"ms","building":"ms"},"geometry":{"type":"Polygon","coordinates":[[[77.568011,28.533498],[77.567955,28.533507],[77.567939,28.533427],[77.567995,28.533418],[77.568011,28.533498]]]}},{"type":"Feature","properties":{"name":null,"render_height":6.4,"render_min_height":0.0,"height_source":"ms","source":"ms","building":"ms"},"geometry":{"type":"Polygon","coordinates":[[[77.566256,28.53198],[77.566267,28.532],[77.566341,28.531971],[77.566426,28.532139],[77.566214,28.532223],[77.566132,28.532062],[77.566098,28.532075],[77.566084,28.532047],[77.566256,28.53198]]]}},{"type":"Feature","properties":{"name":null,"render_height":6.4,"render_min_height":0.0,"height_source":"ms","source":"ms","building":"ms"},"geometry":{"type":"Polygon","coordinates":[[[77.56432,28.516054],[77.564253,28.51611],[77.564198,28.51606],[77.564265,28.516004],[77.56432,28.516054]]]}},{"type":"Feature","properties":{"name":null,"render_height":6.4,"render_min_height":0.0,"height_source":"ms","source":"ms","building":"ms"},"geometry":{"type":"Polygon","coordinates":[[[77.564994,28.531093],[77.56504,28.531156],[77.564943,28.531211],[77.564896,28.531147],[77.564994,28.531093]]]}},{"type":"Feature","properties":{"name":null,"render_height":6.4,"render_min_height":0.0,"height_source":"ms","source":"ms","building":"ms"},"geometry":{"type":"Polygon","coordinates":[[[77.570696,28.52614],[77.570702,28.526053],[77.570754,28.526057],[77.570747,28.526143],[77.570696,28.52614]]]}},{"type":"Feature","properties":{"name":null,"render_height":6.4,"render_min_height":0.0,"height_source":"ms","source":"ms","building":"ms"},"geometry":{"type":"Polygon","coordinates":[[[77.575277,28.523412],[77.575253,28.523456],[77.575166,28.52342],[77.57519,28.523376],[77.575277,28.523412]]]}},{"type":"Feature","properties":{"name":null,"render_height":6.4,"render_min_height":0.0,"height_source":"ms","source":"ms","building":"ms"},"geometry":{"type":"Polygon","coordinates":[[[77.565889,28.532574],[77.565572,28.532754],[77.56546,28.532602],[77.565673,28.532481],[77.565705,28.532524],[77.565722,28.532514],[77.565774,28.532584],[77.565836,28.532549],[77.565806,28.532508],[77.565831,28.532494],[77.565889,28.532574]]]}},{"type":"Feature","properties":{"name":null,"render_height":6.4,"render_min_height":0.0,"height_source":"ms","source":"ms","building":"ms"},"geometry":{"type":"Polygon","coordinates":[[[77.578003,28.533032],[77.57795,28.532961],[77.578025,28.532918],[77.578077,28.532989],[77.578003,28.533032]]]}},{"type":"Feature","properties":{"name":null,"render_height":6.4,"render_min_height":0.0,"height_source":"ms","source":"ms","building":"ms"},"geometry":{"type":"Polygon","coordinates":[[[77.581109,28.529471],[77.580981,28.529563],[77.580908,28.529484],[77.581035,28.529392],[77.581109,28.529471]]]}},{"type":"Feature","properties":{"name":null,"render_height":6.4,"render_min_height":0.0,"height_source":"ms","source":"ms","building":"ms"},"geometry":{"type":"Polygon","coordinates":[[[77.572302,28.532352],[77.572379,28.532296],[77.57244,28.532361],[77.572405,28.532386],[77.57238,28.532361],[77.572339,28.532391],[77.572302,28.532352]]]}},{"type":"Feature","properties":{"name":null,"render_height":6.4,"render_min_height":0.0,"height_source":"ms","source":"ms","building":"ms"},"geometry":{"type":"Polygon","coordinates":[[[77.565631,28.514677],[77.565651,28.514697],[77.565523,28.514796],[77.56548,28.514754],[77.565509,28.514731],[77.565532,28.514754],[77.565631,28.514677]]]}},{"type":"Feature","properties":{"name":null,"render_height":6.4,"render_min_height":0.0,"height_source":"ms","source":"ms","building":"ms"},"geometry":{"type":"Polygon","coordinates":[[[77.570075,28.532999],[77.56995,28.533055],[77.569843,28.532871],[77.569967,28.532815],[77.570075,28.532999]]]}},{"type":"Feature","properties":{"name":null,"render_height":6.4,"render_min_height":0.0,"height_source":"ms","source":"ms","building":"ms"},"geometry":{"type":"Polygon","coordinates":[[[77.577802,28.530238],[77.57774,28.530312],[77.577687,28.530277],[77.57775,28.530204],[77.577802,28.530238]]]}},{"type":"Feature","properties":{"name":null,"render_height":6.4,"render_min_height":0.0,"height_source":"ms","source":"ms","building":"ms"},"geometry":{"type":"Polygon","coordinates":[[[77.565154,28.532708],[77.565138,28.532719],[77.565184,28.532774],[77.565227,28.532745],[77.565299,28.53283],[77.565215,28.532885],[77.565052,28.532694],[77.56511,28.532657],[77.565154,28.532708]]]}},{"type":"Feature","properties":{"name":null,"render_height":6.4,"render_min_height":0.0,"height_source":"ms","source":"ms","building":"ms"},"geometry":{"type":"Polygon","coordinates":[[[77.565397,28.532289],[77.565296,28.532331],[77.565274,28.53229],[77.565376,28.532249],[77.565397,28.532289]]]}},{"type":"Feature","properties":{"name":null,"render_height":6.4,"render_min_height":0.0,"height_source":"ms","source":"ms","building":"ms"},"geometry":{"type":"Polygon","coordinates":[[[77.572241,28.518949],[77.572283,28.51901],[77.572228,28.519039],[77.572186,28.518978],[77.572241,28.518949]]]}},{"type":"Feature","properties":{"name":null,"render_height":6.4,"render_min_height":0.0,"height_source":"ms","source":"ms","building":"ms"},"geometry":{"type":"Polygon","coordinates":[[[77.581042,28.529607],[77.581125,28.529551],[77.58131,28.529765],[77.581227,28.529821],[77.581042,28.529607]]]}},{"type":"Feature","properties":{"name":null,"render_height":6.4,"render_min_height":0.0,"height_source":"ms","source":"ms","building":"ms"},"geometry":{"type":"Polygon","coordinates":[[[77.568842,28.522863],[77.568972,28.522826],[77.569028,28.52298],[77.569101,28.52296],[77.569127,28.52303],[77.569096,28.523039],[77.569163,28.523224],[77.569108,28.523239],[77.569052,28.523085],[77.568986,28.523104],[77.569035,28.523238],[77.568984,28.523252],[77.568842,28.522863]]]}},{"type":"Feature","properties":{"name":null,"render_height":6.4,"render_min_height":0.0,"height_source":"ms","source":"ms","building":"ms"},"geometry":{"type":"Polygon","coordinates":[[[77.580297,28.528104],[77.580455,28.528],[77.580702,28.528291],[77.580543,28.528395],[77.580297,28.528104]]]}},{"type":"Feature","properties":{"name":null,"render_height":6.4,"render_min_height":0.0,"height_source":"ms","source":"ms","building":"ms"},"geometry":{"type":"Polygon","coordinates":[[[77.581185,28.531139],[77.58122,28.53118],[77.58114,28.531232],[77.581105,28.531191],[77.581185,28.531139]]]}},{"type":"Feature","properties":{"name":null,"render_height":6.4,"render_min_height":0.0,"height_source":"ms","source":"ms","building":"ms"},"geometry":{"type":"Polygon","coordinates":[[[77.581525,28.532239],[77.581551,28.532295],[77.581493,28.532316],[77.581466,28.53226],[77.581525,28.532239]]]}},{"type":"Feature","properties":{"name":null,"render_height":6.4,"render_min_height":0.0,"height_source":"ms","source":"ms","building":"ms"},"geometry":{"type":"Polygon","coordinates":[[[77.569,28.513672],[77.568945,28.513685],[77.568922,28.513614],[77.568976,28.5136],[77.569,28.513672]]]}},{"type":"Feature","properties":{"name":null,"render_height":6.4,"render_min_height":0.0,"height_source":"ms","source":"ms","building":"ms"},"geometry":{"type":"Polygon","coordinates":[[[77.570231,28.521656],[77.570281,28.521763],[77.570209,28.521788],[77.57016,28.521681],[77.570231,28.521656]]]}},{"type":"Feature","properties":{"name":null,"render_height":6.4,"render_min_height":0.0,"height_source":"ms","source":"ms","building":"ms"},"geometry":{"type":"Polygon","coordinates":[[[77.578603,28.529256],[77.578714,28.52922],[77.578737,28.529182],[77.57876,28.529174],[77.578981,28.529278],[77.579029,28.529263],[77.579163,28.529577],[77.579022,28.529623],[77.579068,28.529733],[77.579127,28.529714],[77.57914,28.529745],[77.579035,28.529779],[77.579134,28.529826],[77.579175,28.529922],[77.579023,28.529972],[77.579085,28.530001],[77.579118,28.530077],[77.578968,28.530126],[77.578953,28.53015],[77.578859,28.530181],[77.578808,28.530061],[77.57887,28.529959],[77.578846,28.529902],[77.578904,28.529883],[77.578875,28.529814],[77.578825,28.52983],[77.578774,28.529709],[77.578901,28.529668],[77.57885,28.529548],[77.578742,28.529583],[77.578603,28.529256]]]}},{"type":"Feature","properties":{"name":null,"render_height":6.4,"render_min_height":0.0,"height_source":"ms","source":"ms","building":"ms"},"geometry":{"type":"Polygon","coordinates":[[[77.566308,28.530991],[77.566479,28.530895],[77.566545,28.530986],[77.566375,28.531082],[77.566308,28.530991]]]}},{"type":"Feature","properties":{"name":null,"render_height":6.4,"render_min_height":0.0,"height_source":"ms","source":"ms","building":"ms"},"geometry":{"type":"Polygon","coordinates":[[[77.579682,28.530543],[77.579585,28.530621],[77.579492,28.530531],[77.579588,28.530453],[77.579682,28.530543]]]}},{"type":"Feature","properties":{"name":null,"render_height":6.4,"render_min_height":0.0,"height_source":"ms","source":"ms","building":"ms"},"geometry":{"type":"Polygon","coordinates":[[[77.570628,28.513474],[77.570575,28.513498],[77.570466,28.513307],[77.57052,28.513284],[77.570628,28.513474]]]}},{"type":"Feature","properties":{"name":null,"render_height":6.4,"render_min_height":0.0,"height_source":"ms","source":"ms","building":"ms"},"geometry":{"type":"Polygon","coordinates":[[[77.58157,28.526593],[77.581479,28.526646],[77.58143,28.526583],[77.581397,28.526602],[77.581312,28.52649],[77.581436,28.526417],[77.58157,28.526593]]]}},{"type":"Feature","properties":{"name":null,"render_height":6.4,"render_min_height":0.0,"height_source":"ms","source":"ms","building":"ms"},"geometry":{"type":"Polygon","coordinates":[[[77.582118,28.528342],[77.582208,28.528425],[77.582113,28.528504],[77.582023,28.52842],[77.582118,28.528342]]]}},{"type":"Feature","properties":{"name":null,"render_height":6.4,"render_min_height":0.0,"height_source":"ms","source":"ms","building":"ms"},"geometry":{"type":"Polygon","coordinates":[[[77.565304,28.514609],[77.565218,28.514657],[77.565166,28.514584],[77.565252,28.514536],[77.565304,28.514609]]]}},{"type":"Feature","properties":{"name":null,"render_height":6.4,"render_min_height":0.0,"height_source":"ms","source":"ms","building":"ms"},"geometry":{"type":"Polygon","coordinates":[[[77.568919,28.522598],[77.569039,28.52259],[77.569046,28.522675],[77.568926,28.522683],[77.568919,28.522598]]]}},{"type":"Feature","properties":{"name":null,"render_height":6.4,"render_min_height":0.0,"height_source":"ms","source":"ms","building":"ms"},"geometry":{"type":"Polygon","coordinates":[[[77.579609,28.530431],[77.579711,28.530348],[77.579803,28.530435],[77.579701,28.530519],[77.579609,28.530431]]]}},{"type":"Feature","properties":{"name":null,"render_height":6.4,"render_min_height":0.0,"height_source":"ms","source":"ms","building":"ms"},"geometry":{"type":"Polygon","coordinates":[[[77.569341,28.523856],[77.569376,28.523915],[77.569315,28.523944],[77.56928,28.523884],[77.569341,28.523856]]]}},{"type":"Feature","properties":{"name":null,"render_height":6.4,"render_min_height":0.0,"height_source":"ms","source":"ms","building":"ms"},"geometry":{"type":"Polygon","coordinates":[[[77.565249,28.514816],[77.565294,28.514842],[77.565049,28.51517],[77.565004,28.515144],[77.565249,28.514816]]]}},{"type":"Feature","properties":{"name":null,"render_height":6.4,"render_min_height":0.0,"height_source":"ms","source":"ms","building":"ms"},"geometry":{"type":"Polygon","coordinates":[[[77.564027,28.515711],[77.564122,28.515662],[77.564171,28.515735],[77.564075,28.515784],[77.564027,28.515711]]]}},{"type":"Feature","properties":{"name":null,"render_height":6.4,"render_min_height":0.0,"height_source":"ms","source":"ms","building":"ms"},"geometry":{"type":"Polygon","coordinates":[[[77.565392,28.53194],[77.565411,28.531981],[77.56528,28.532026],[77.565262,28.531984],[77.565392,28.53194]]]}},{"type":"Feature","properties":{"name":null,"render_height":6.4,"render_min_height":0.0,"height_source":"ms","source":"ms","building":"ms"},"geometry":{"type":"Polygon","coordinates":[[[77.577031,28.532392],[77.577091,28.532336],[77.577427,28.532618],[77.577367,28.532673],[77.577031,28.532392]]]}},{"type":"Feature","properties":{"name":null,"render_height":6.4,"render_min_height":0.0,"height_source":"ms","source":"ms","building":"ms"},"geometry":{"type":"Polygon","coordinates":[[[77.578972,28.532837],[77.579022,28.532887],[77.57883,28.533034],[77.57878,28.532984],[77.578972,28.532837]]]}},{"type":"Feature","properties":{"name":null,"render_height":6.4,"render_min_height":0.0,"height_source":"ms","source":"ms","building":"ms"},"geometry":{"type":"Polygon","coordinates":[[[77.565641,28.53177],[77.565793,28.531707],[77.565937,28.531974],[77.565784,28.532038],[77.565641,28.53177]]]}},{"type":"Feature","properties":{"name":null,"render_height":6.4,"render_min_height":0.0,"height_source":"ms","source":"ms","building":"ms"},"geometry":{"type":"Polygon","coordinates":[[[77.565891,28.531369],[77.565727,28.531447],[77.565688,28.531383],[77.565851,28.531305],[77.565891,28.531369]]]}},{"type":"Feature","properties":{"name":null,"render_height":6.4,"render_min_height":0.0,"height_source":"ms","source":"ms","building":"ms"},"geometry":{"type":"Polygon","coordinates":[[[77.569555,28.513718],[77.569573,28.513756],[77.569486,28.513788],[77.569468,28.513749],[77.569555,28.513718]]]}},{"type":"Feature","properties":{"name":null,"render_height":6.4,"render_min_height":0.0,"height_source":"ms","source":"ms","building":"ms"},"geometry":{"type":"Polygon","coordinates":[[[77.567968,28.528987],[77.567845,28.529023],[77.567806,28.528922],[77.567928,28.528885],[77.567968,28.528987]]]}},{"type":"Feature","properties":{"name":null,"render_height":6.4,"render_min_height":0.0,"height_source":"ms","source":"ms","building":"ms"},"geometry":{"type":"Polygon","coordinates":[[[77.57289,28.527152],[77.572828,28.526983],[77.573127,28.526898],[77.573112,28.526856],[77.573379,28.52678],[77.573447,28.526966],[77.573372,28.526988],[77.573381,28.527013],[77.57289,28.527152]]]}},{"type":"Feature","properties":{"name":null,"render_height":6.4,"render_min_height":0.0,"height_source":"ms","source":"ms","building":"ms"},"geometry":{"type":"Polygon","coordinates":[[[77.566613,28.530382],[77.566775,28.53028],[77.566828,28.530346],[77.566666,28.530447],[77.566613,28.530382]]]}},{"type":"Feature","properties":{"name":null,"render_height":6.4,"render_min_height":0.0,"height_source":"ms","source":"ms","building":"ms"},"geometry":{"type":"Polygon","coordinates":[[[77.568798,28.522186],[77.568864,28.52231],[77.568781,28.522343],[77.568716,28.522219],[77.568798,28.522186]]]}},{"type":"Feature","properties":{"name":null,"render_height":6.4,"render_min_height":0.0,"height_source":"ms","source":"ms","building":"ms"},"geometry":{"type":"Polygon","coordinates":[[[77.56472,28.531455],[77.564682,28.531485],[77.564571,28.531375],[77.564716,28.531262],[77.564744,28.531289],[77.564637,28.531373],[77.56472,28.531455]]]}},{"type":"Feature","properties":{"name":null,"render_height":6.4,"render_min_height":0.0,"height_source":"ms","source":"ms","building":"ms"},"geometry":{"type":"Polygon","coordinates":[[[77.566239,28.514561],[77.566174,28.514622],[77.565962,28.514448],[77.566026,28.514388],[77.566239,28.514561]]]}},{"type":"Feature","properties":{"name":null,"render_height":6.4,"render_min_height":0.0,"height_source":"ms","source":"ms","building":"ms"},"geometry":{"type":"Polygon","coordinates":[[[77.568939,28.522466],[77.568995,28.522587],[77.568818,28.522651],[77.568761,28.522531],[77.568939,28.522466]]]}},{"type":"Feature","properties":{"name":null,"render_height":6.4,"render_min_height":0.0,"height_source":"ms","source":"ms","building":"ms"},"geometry":{"type":"Polygon","coordinates":[[[77.569851,28.521842],[77.57008,28.521758],[77.570111,28.521824],[77.569882,28.521908],[77.569851,28.521842]]]}},{"type":"Feature","properties":{"name":null,"render_height":6.4,"render_min_height":0.0,"height_source":"ms","source":"ms","building":"ms"},"geometry":{"type":"Polygon","coordinates":[[[77.565123,28.518033],[77.565218,28.51798],[77.565242,28.518013],[77.565147,28.518067],[77.565123,28.518033]]]}},{"type":"Feature","properties":{"name":null,"render_height":6.4,"render_min_height":0.0,"height_source":"ms","source":"ms","building":"ms"},"geometry":{"type":"Polygon","coordinates":[[[77.56923,28.52342],[77.569246,28.523458],[77.569132,28.523495],[77.569116,28.523456],[77.56923,28.52342]]]}},{"type":"Feature","properties":{"name":null,"render_height":6.4,"render_min_height":0.0,"height_source":"ms","source":"ms","building":"ms"},"geometry":{"type":"Polygon","coordinates":[[[77.581185,28.532368],[77.581288,28.532325],[77.581337,28.532415],[77.581557,28.532322],[77.581597,28.532394],[77.581274,28.532531],[77.581185,28.532368]]]}},{"type":"Feature","properties":{"name":null,"render_height":6.4,"render_min_height":0.0,"height_source":"ms","source":"ms","building":"ms"},"geometry":{"type":"Polygon","coordinates":[[[77.572741,28.527434],[77.572611,28.52747],[77.572587,28.527401],[77.572717,28.527366],[77.572741,28.527434]]]}},{"type":"Feature","properties":{"name":null,"render_height":6.4,"render_min_height":0.0,"height_source":"ms","source":"ms","building":"ms"},"geometry":{"type":"Polygon","coordinates":[[[77.576209,28.528326],[77.576281,28.528315],[77.576331,28.528584],[77.576259,28.528594],[77.576209,28.528326]]]}},{"type":"Feature","properties":{"name":null,"render_height":6.4,"render_min_height":0.0,"height_source":"ms","source":"ms","building":"ms"},"geometry":{"type":"Polygon","coordinates":[[[77.579437,28.530147],[77.579542,28.530073],[77.579628,28.530168],[77.579523,28.530241],[77.579437,28.530147]]]}},{"type":"Feature","properties":{"name":null,"render_height":6.4,"render_min_height":0.0,"height_source":"ms","source":"ms","building":"ms"},"geometry":{"type":"Polygon","coordinates":[[[77.566125,28.532881],[77.566147,28.532921],[77.566095,28.532943],[77.566079,28.532914],[77.566036,28.532932],[77.565965,28.532804],[77.566089,28.53275],[77.566155,28.532868],[77.566125,28.532881]]]}},{"type":"Feature","properties":{"name":null,"render_height":6.4,"render_min_height":0.0,"height_source":"ms","source":"ms","building":"ms"},"geometry":{"type":"Polygon","coordinates":[[[77.581046,28.530352],[77.58099,28.530397],[77.580937,28.530345],[77.580993,28.5303],[77.581046,28.530352]]]}},{"type":"Feature","properties":{"name":null,"render_height":6.4,"render_min_height":0.0,"height_source":"ms","source":"ms","building":"ms"},"geometry":{"type":"Polygon","coordinates":[[[77.56539,28.531922],[77.565623,28.531796],[77.565669,28.53186],[77.565436,28.531987],[77.56539,28.531922]]]}},{"type":"Feature","properties":{"name":null,"render_height":6.4,"render_min_height":0.0,"height_source":"ms","source":"ms","building":"ms"},"geometry":{"type":"Polygon","coordinates":[[[77.577831,28.529042],[77.577895,28.529243],[77.577665,28.5293],[77.577637,28.529212],[77.577508,28.529244],[77.57745,28.529065],[77.577311,28.529099],[77.577249,28.528904],[77.577316,28.528887],[77.57736,28.528921],[77.577313,28.528774],[77.57742,28.528747],[77.577359,28.528555],[77.577429,28.528538],[77.577467,28.528567],[77.57742,28.52842],[77.577612,28.528372],[77.577636,28.528448],[77.577696,28.528494],[77.577713,28.528548],[77.577612,28.528573],[77.577647,28.528681],[77.577549,28.528705],[77.577613,28.528907],[77.577498,28.528935],[77.577513,28.528983],[77.577548,28.52901],[77.577609,28.528995],[77.577709,28.529072],[77.577831,28.529042]]]}},{"type":"Feature","properties":{"name":null,"render_height":6.4,"render_min_height":0.0,"height_source":"ms","source":"ms","building":"ms"},"geometry":{"type":"Polygon","coordinates":[[[77.566112,28.513806],[77.566032,28.513856],[77.566003,28.513821],[77.566083,28.51377],[77.566112,28.513806]]]}},{"type":"Feature","properties":{"name":null,"render_height":6.4,"render_min_height":0.0,"height_source":"ms","source":"ms","building":"ms"},"geometry":{"type":"Polygon","coordinates":[[[77.580188,28.530915],[77.58022,28.53095],[77.580162,28.530991],[77.580098,28.53092],[77.580274,28.530794],[77.580307,28.530831],[77.580188,28.530915]]]}},{"type":"Feature","properties":{"name":null,"render_height":6.4,"render_min_height":0.0,"height_source":"ms","source":"ms","building":"ms"},"geometry":{"type":"Polygon","coordinates":[[[77.567048,28.514012],[77.567118,28.514141],[77.56703,28.514177],[77.566961,28.514048],[77.567048,28.514012]]]}},{"type":"Feature","properties":{"name":null,"render_height":6.4,"render_min_height":0.0,"height_source":"ms","source":"ms","building":"ms"},"geometry":{"type":"Polygon","coordinates":[[[77.567636,28.528843],[77.56753,28.528865],[77.567519,28.528825],[77.567625,28.528803],[77.567636,28.528843]]]}},{"type":"Feature","properties":{"name":null,"render_height":6.4,"render_min_height":0.0,"height_source":"ms","source":"ms","building":"ms"},"geometry":{"type":"Polygon","coordinates":[[[77.564359,28.515276],[77.564264,28.515147],[77.564321,28.515114],[77.564587,28.515475],[77.564504,28.515522],[77.564433,28.515425],[77.564424,28.51543],[77.564325,28.515296],[77.564359,28.515276]]]}},{"type":"Feature","properties":{"name":null,"render_height":6.4,"render_min_height":0.0,"height_source":"ms","source":"ms","building":"ms"},"geometry":{"type":"Polygon","coordinates":[[[77.565853,28.531017],[77.56577,28.531059],[77.565728,28.530996],[77.565811,28.530953],[77.565853,28.531017]]]}},{"type":"Feature","properties":{"name":null,"render_height":6.4,"render_min_height":0.0,"height_source":"ms","source":"ms","building":"ms"},"geometry":{"type":"Polygon","coordinates":[[[77.578045,28.529629],[77.577866,28.529682],[77.577884,28.529729],[77.57771,28.52978],[77.577672,28.529681],[77.577434,28.529751],[77.577422,28.529722],[77.577348,28.529744],[77.577282,28.529573],[77.577312,28.529564],[77.577257,28.52942],[77.577431,28.529368],[77.577395,28.529273],[77.577455,28.529255],[77.577511,28.529401],[77.577576,28.529382],[77.577613,28.529479],[77.577714,28.529449],[77.577792,28.52965],[77.577847,28.529633],[77.577765,28.529421],[77.577945,28.529368],[77.578045,28.529629]]]}},{"type":"Feature","properties":{"name":null,"render_height":6.4,"render_min_height":0.0,"height_source":"ms","source":"ms","building":"ms"},"geometry":{"type":"Polygon","coordinates":[[[77.565155,28.531038],[77.565019,28.531121],[77.56499,28.531085],[77.565126,28.531002],[77.565155,28.531038]]]}},{"type":"Feature","properties":{"name":null,"render_height":6.4,"render_min_height":0.0,"height_source":"ms","source":"ms","building":"ms"},"geometry":{"type":"Polygon","coordinates":[[[77.577939,28.533236],[77.57804,28.533143],[77.578175,28.533257],[77.578074,28.53335],[77.577939,28.533236]]]}},{"type":"Feature","properties":{"name":null,"render_height":6.4,"render_min_height":0.0,"height_source":"ms","source":"ms","building":"ms"},"geometry":{"type":"Polygon","coordinates":[[[77.581743,28.526259],[77.581781,28.526238],[77.581843,28.526326],[77.581805,28.526347],[77.581743,28.526259]]]}},{"type":"Feature","properties":{"name":null,"render_height":6.4,"render_min_height":0.0,"height_source":"ms","source":"ms","building":"ms"},"geometry":{"type":"Polygon","coordinates":[[[77.57767,28.52606],[77.577543,28.526056],[77.577544,28.526019],[77.577672,28.526022],[77.57767,28.52606]]]}},{"type":"Feature","properties":{"name":null,"render_height":6.4,"render_min_height":0.0,"height_source":"ms","source":"ms","building":"ms"},"geometry":{"type":"Polygon","coordinates":[[[77.571656,28.51342],[77.571725,28.513347],[77.571771,28.513381],[77.571702,28.513454],[77.571656,28.51342]]]}},{"type":"Feature","properties":{"name":null,"render_height":6.4,"render_min_height":0.0,"height_source":"ms","source":"ms","building":"ms"},"geometry":{"type":"Polygon","coordinates":[[[77.574207,28.514445],[77.574253,28.514504],[77.574354,28.514555],[77.574431,28.514655],[77.574408,28.514691],[77.574456,28.514754],[77.574433,28.514789],[77.574416,28.514781],[77.574334,28.514829],[77.574309,28.514817],[77.574257,28.514749],[77.574211,28.514777],[77.574172,28.514758],[77.5742,28.514715],[77.574189,28.514701],[77.574104,28.514658],[77.574103,28.514657],[77.574141,28.514599],[77.57408,28.51452],[77.574207,28.514445]]]}},{"type":"Feature","properties":{"name":null,"render_height":6.4,"render_min_height":0.0,"height_source":"ms","source":"ms","building":"ms"},"geometry":{"type":"Polygon","coordinates":[[[77.57829,28.526863],[77.578221,28.526886],[77.57817,28.526767],[77.57824,28.526744],[77.57829,28.526863]]]}},{"type":"Feature","properties":{"name":null,"render_height":6.4,"render_min_height":0.0,"height_source":"ms","source":"ms","building":"ms"},"geometry":{"type":"Polygon","coordinates":[[[77.578024,28.531426],[77.578102,28.531492],[77.578021,28.531567],[77.577942,28.531501],[77.578024,28.531426]]]}},{"type":"Feature","properties":{"name":null,"render_height":6.4,"render_min_height":0.0,"height_source":"ms","source":"ms","building":"ms"},"geometry":{"type":"Polygon","coordinates":[[[77.577956,28.532218],[77.57803,28.532278],[77.577968,28.532336],[77.577895,28.532275],[77.577956,28.532218]]]}},{"type":"Feature","properties":{"name":null,"render_height":6.4,"render_min_height":0.0,"height_source":"ms","source":"ms","building":"ms"},"geometry":{"type":"Polygon","coordinates":[[[77.565628,28.514548],[77.565653,28.514608],[77.565573,28.514633],[77.565549,28.514573],[77.565628,28.514548]]]}},{"type":"Feature","properties":{"name":null,"render_height":6.4,"render_min_height":0.0,"height_source":"ms","source":"ms","building":"ms"},"geometry":{"type":"Polygon","coordinates":[[[77.56534,28.514696],[77.565381,28.514662],[77.56553,28.5148],[77.565651,28.5147],[77.565721,28.514765],[77.56556,28.514899],[77.56534,28.514696]]]}},{"type":"Feature","properties":{"name":null,"render_height":6.4,"render_min_height":0.0,"height_source":"ms","source":"ms","building":"ms"},"geometry":{"type":"Polygon","coordinates":[[[77.565529,28.532253],[77.565616,28.532214],[77.56565,28.532273],[77.565563,28.532312],[77.565529,28.532253]]]}},{"type":"Feature","properties":{"name":null,"render_height":6.4,"render_min_height":0.0,"height_source":"ms","source":"ms","building":"ms"},"geometry":{"type":"Polygon","coordinates":[[[77.56839,28.514114],[77.568521,28.514078],[77.568556,28.514174],[77.568425,28.51421],[77.56839,28.514114]]]}},{"type":"Feature","properties":{"name":null,"render_height":6.4,"render_min_height":0.0,"height_source":"ms","source":"ms","building":"ms"},"geometry":{"type":"Polygon","coordinates":[[[77.579028,28.533343],[77.57892,28.533314],[77.579151,28.532657],[77.579259,28.532686],[77.579028,28.533343]]]}},{"type":"Feature","properties":{"name":null,"render_height":6.4,"render_min_height":0.0,"height_source":"ms","source":"ms","building":"ms"},"geometry":{"type":"Polygon","coordinates":[[[77.576186,28.532763],[77.576244,28.532841],[77.576185,28.532874],[77.576128,28.532796],[77.576186,28.532763]]]}},{"type":"Feature","properties":{"name":null,"render_height":6.4,"render_min_height":0.0,"height_source":"ms","source":"ms","building":"ms"},"geometry":{"type":"Polygon","coordinates":[[[77.580005,28.52987],[77.579919,28.52994],[77.57988,28.529904],[77.57985,28.529929],[77.579741,28.529827],[77.579857,28.529731],[77.580005,28.52987]]]}},{"type":"Feature","properties":{"name":null,"render_height":6.4,"render_min_height":0.0,"height_source":"ms","source":"ms","building":"ms"},"geometry":{"type":"Polygon","coordinates":[[[77.572724,28.527667],[77.572822,28.527643],[77.572832,28.527675],[77.573032,28.527626],[77.573074,28.527757],[77.57306,28.52776],[77.573098,28.527879],[77.573108,28.527877],[77.573121,28.527918],[77.572827,28.52799],[77.572724,28.527667]]]}},{"type":"Feature","properties":{"name":null,"render_height":6.4,"render_min_height":0.0,"height_source":"ms","source":"ms","building":"ms"},"geometry":{"type":"Polygon","coordinates":[[[77.577785,28.532402],[77.57787,28.53248],[77.577839,28.532505],[77.577754,28.532428],[77.577785,28.532402]]]}},{"type":"Feature","properties":{"name":null,"render_height":6.4,"render_min_height":0.0,"height_source":"ms","source":"ms","building":"ms"},"geometry":{"type":"Polygon","coordinates":[[[77.579842,28.531744],[77.579721,28.53181],[77.579675,28.531745],[77.579796,28.531679],[77.579842,28.531744]]]}},{"type":"Feature","properties":{"name":null,"render_height":6.4,"render_min_height":0.0,"height_source":"ms","source":"ms","building":"ms"},"geometry":{"type":"Polygon","coordinates":[[[77.56992,28.520995],[77.56981,28.521024],[77.569773,28.520912],[77.569882,28.520883],[77.56992,28.520995]]]}},{"type":"Feature","properties":{"name":null,"render_height":6.4,"render_min_height":0.0,"height_source":"ms","source":"ms","building":"ms"},"geometry":{"type":"Polygon","coordinates":[[[77.572881,28.527592],[77.57299,28.527556],[77.573014,28.527613],[77.572905,28.527649],[77.572881,28.527592]]]}},{"type":"Feature","properties":{"name":null,"render_height":6.4,"render_min_height":0.0,"height_source":"ms","source":"ms","building":"ms"},"geometry":{"type":"Polygon","coordinates":[[[77.575886,28.520134],[77.576039,28.520084],[77.576069,28.520155],[77.575915,28.520205],[77.575886,28.520134]]]}},{"type":"Feature","properties":{"name":null,"render_height":6.4,"render_min_height":0.0,"height_source":"ms","source":"ms","building":"ms"},"geometry":{"type":"Polygon","coordinates":[[[77.57044,28.514338],[77.570307,28.5144],[77.570284,28.514364],[77.570418,28.514301],[77.57044,28.514338]]]}},{"type":"Feature","properties":{"name":null,"render_height":6.4,"render_min_height":0.0,"height_source":"ms","source":"ms","building":"ms"},"geometry":{"type":"Polygon","coordinates":[[[77.580978,28.529696],[77.58106,28.529638],[77.581125,28.52971],[77.581043,28.529768],[77.580978,28.529696]]]}},{"type":"Feature","properties":{"name":null,"render_height":6.4,"render_min_height":0.0,"height_source":"ms","source":"ms","building":"ms"},"geometry":{"type":"Polygon","coordinates":[[[77.571169,28.525876],[77.571263,28.52585],[77.571277,28.52589],[77.571183,28.525916],[77.571169,28.525876]]]}},{"type":"Feature","properties":{"name":null,"render_height":6.4,"render_min_height":0.0,"height_source":"ms","source":"ms","building":"ms"},"geometry":{"type":"Polygon","coordinates":[[[77.565822,28.533124],[77.565865,28.533172],[77.565814,28.533207],[77.565771,28.533159],[77.565822,28.533124]]]}},{"type":"Feature","properties":{"name":null,"render_height":6.4,"render_min_height":0.0,"height_source":"ms","source":"ms","building":"ms"},"geometry":{"type":"Polygon","coordinates":[[[77.569093,28.523335],[77.569055,28.523348],[77.56901,28.52325],[77.569049,28.523236],[77.569093,28.523335]]]}},{"type":"Feature","properties":{"name":null,"render_height":6.4,"render_min_height":0.0,"height_source":"ms","source":"ms","building":"ms"},"geometry":{"type":"Polygon","coordinates":[[[77.576537,28.52827],[77.57664,28.528251],[77.576668,28.528369],[77.576596,28.528382],[77.576577,28.528301],[77.576546,28.528306],[77.576537,28.52827]]]}},{"type":"Feature","properties":{"name":null,"render_height":6.4,"render_min_height":0.0,"height_source":"ms","source":"ms","building":"ms"},"geometry":{"type":"Polygon","coordinates":[[[77.568636,28.522366],[77.568699,28.522343],[77.568725,28.522397],[77.568662,28.52242],[77.568636,28.522366]]]}},{"type":"Feature","properties":{"name":null,"render_height":6.4,"render_min_height":0.0,"height_source":"ms","source":"ms","building":"ms"},"geometry":{"type":"Polygon","coordinates":[[[77.571069,28.513223],[77.571177,28.513147],[77.57131,28.513295],[77.571417,28.51322],[77.571465,28.513274],[77.571428,28.5133],[77.57146,28.513336],[77.571421,28.513363],[77.571462,28.513407],[77.571401,28.51345],[77.571374,28.51342],[77.571297,28.513474],[77.571069,28.513223]]]}},{"type":"Feature","properties":{"name":null,"render_height":6.4,"render_min_height":0.0,"height_source":"ms","source":"ms","building":"ms"},"geometry":{"type":"Polygon","coordinates":[[[77.569728,28.514221],[77.569763,28.51428],[77.569692,28.514312],[77.569657,28.514253],[77.569728,28.514221]]]}},{"type":"Feature","properties":{"name":null,"render_height":6.4,"render_min_height":0.0,"height_source":"ms","source":"ms","building":"ms"},"geometry":{"type":"Polygon","coordinates":[[[77.57018,28.53319],[77.570234,28.533168],[77.570298,28.533292],[77.570243,28.533313],[77.57018,28.53319]]]}},{"type":"Feature","properties":{"name":null,"render_height":6.4,"render_min_height":0.0,"height_source":"ms","source":"ms","building":"ms"},"geometry":{"type":"Polygon","coordinates":[[[77.576316,28.532673],[77.576413,28.53262],[77.576439,28.532658],[77.576343,28.532711],[77.576316,28.532673]]]}},{"type":"Feature","properties":{"name":null,"render_height":6.4,"render_min_height":0.0,"height_source":"ms","source":"ms","building":"ms"},"geometry":{"type":"Polygon","coordinates":[[[77.565546,28.514426],[77.565428,28.514516],[77.565256,28.514342],[77.565373,28.514252],[77.565546,28.514426]]]}},{"type":"Feature","properties":{"name":null,"render_height":6.4,"render_min_height":0.0,"height_source":"ms","source":"ms","building":"ms"},"geometry":{"type":"Polygon","coordinates":[[[77.578358,28.528739],[77.578329,28.52872],[77.578304,28.528651],[77.578179,28.528685],[77.578118,28.52851],[77.578013,28.528539],[77.577981,28.528448],[77.577861,28.528481],[77.577795,28.528294],[77.578002,28.528238],[77.57801,28.52824],[77.578035,28.528311],[77.57816,28.528277],[77.578222,28.528454],[77.578278,28.528438],[77.578337,28.528476],[77.578525,28.528515],[77.57858,28.528672],[77.578426,28.528714],[77.578501,28.528762],[77.578552,28.528906],[77.578429,28.528939],[77.578439,28.52897],[77.578482,28.528997],[77.578492,28.529026],[77.578245,28.529093],[77.578178,28.528904],[77.578245,28.528885],[77.578279,28.528893],[77.578237,28.528772],[77.578358,28.528739],[77.578358,28.528739]]]}},{"type":"Feature","properties":{"name":null,"render_height":6.4,"render_min_height":0.0,"height_source":"ms","source":"ms","building":"ms"},"geometry":{"type":"Polygon","coordinates":[[[77.569896,28.514729],[77.569942,28.514812],[77.56985,28.51485],[77.569805,28.514768],[77.569896,28.514729]]]}},{"type":"Feature","properties":{"name":null,"render_height":6.4,"render_min_height":0.0,"height_source":"ms","source":"ms","building":"ms"},"geometry":{"type":"Polygon","coordinates":[[[77.574645,28.529949],[77.574647,28.530053],[77.574505,28.530054],[77.574504,28.529988],[77.574539,28.529988],[77.574538,28.52995],[77.574645,28.529949]]]}},{"type":"Feature","properties":{"name":null,"render_height":6.4,"render_min_height":0.0,"height_source":"ms","source":"ms","building":"ms"},"geometry":{"type":"Polygon","coordinates":[[[77.581884,28.528992],[77.582061,28.52884],[77.582121,28.528894],[77.582253,28.528781],[77.582427,28.528938],[77.582411,28.528952],[77.582529,28.529058],[77.582419,28.529152],[77.582214,28.528968],[77.582211,28.52897],[77.58217,28.528933],[77.582152,28.528948],[77.582172,28.528966],[77.58201,28.529105],[77.581884,28.528992]]]}},{"type":"Feature","properties":{"name":null,"render_height":6.4,"render_min_height":0.0,"height_source":"ms","source":"ms","building":"ms"},"geometry":{"type":"Polygon","coordinates":[[[77.568882,28.533302],[77.568958,28.533252],[77.568993,28.533293],[77.568917,28.533342],[77.568882,28.533302]]]}},{"type":"Feature","properties":{"name":null,"render_height":6.4,"render_min_height":0.0,"height_source":"ms","source":"ms","building":"ms"},"geometry":{"type":"Polygon","coordinates":[[[77.58232,28.527967],[77.582266,28.52799],[77.582204,28.527881],[77.582257,28.527858],[77.58232,28.527967]]]}},{"type":"Feature","properties":{"name":null,"render_height":6.4,"render_min_height":0.0,"height_source":"ms","source":"ms","building":"ms"},"geometry":{"type":"Polygon","coordinates":[[[77.567748,28.532451],[77.567872,28.532388],[77.568408,28.533205],[77.568284,28.533268],[77.567748,28.532451]]]}},{"type":"Feature","properties":{"name":null,"render_height":6.4,"render_min_height":0.0,"height_source":"ms","source":"ms","building":"ms"},"geometry":{"type":"Polygon","coordinates":[[[77.571731,28.526257],[77.571376,28.526371],[77.571358,28.526328],[77.571713,28.526214],[77.571731,28.526257]]]}},{"type":"Feature","properties":{"name":null,"render_height":6.4,"render_min_height":0.0,"height_source":"ms","source":"ms","building":"ms"},"geometry":{"type":"Polygon","coordinates":[[[77.576532,28.528889],[77.576643,28.528868],[77.576649,28.528895],[77.576708,28.528884],[77.576741,28.529022],[77.576623,28.529044],[77.576597,28.528935],[77.576546,28.528945],[77.576532,28.528889]]]}},{"type":"Feature","properties":{"name":null,"render_height":6.4,"render_min_height":0.0,"height_source":"ms","source":"ms","building":"ms"},"geometry":{"type":"Polygon","coordinates":[[[77.56977,28.532962],[77.569832,28.533072],[77.569695,28.533131],[77.569634,28.53302],[77.56977,28.532962]]]}},{"type":"Feature","properties":{"name":null,"render_height":6.4,"render_min_height":0.0,"height_source":"ms","source":"ms","building":"ms"},"geometry":{"type":"Polygon","coordinates":[[[77.570044,28.515141],[77.569902,28.51519],[77.569888,28.515157],[77.569846,28.515171],[77.569813,28.515098],[77.569997,28.515034],[77.570044,28.515141]]]}},{"type":"Feature","properties":{"name":null,"render_height":6.4,"render_min_height":0.0,"height_source":"ms","source":"ms","building":"ms"},"geometry":{"type":"Polygon","coordinates":[[[77.56458,28.516081],[77.564386,28.515853],[77.564419,28.515831],[77.564614,28.516059],[77.56458,28.516081]]]}},{"type":"Feature","properties":{"name":null,"render_height":6.4,"render_min_height":0.0,"height_source":"ms","source":"ms","building":"ms"},"geometry":{"type":"Polygon","coordinates":[[[77.581288,28.528416],[77.581321,28.528455],[77.581256,28.528498],[77.581222,28.528459],[77.581288,28.528416]]]}},{"type":"Feature","properties":{"name":null,"render_height":6.4,"render_min_height":0.0,"height_source":"ms","source":"ms","building":"ms"},"geometry":{"type":"Polygon","coordinates":[[[77.568555,28.513507],[77.568609,28.513638],[77.568504,28.513672],[77.56845,28.51354],[77.568555,28.513507]]]}},{"type":"Feature","properties":{"name":null,"render_height":6.4,"render_min_height":0.0,"height_source":"ms","source":"ms","building":"ms"},"geometry":{"type":"Polygon","coordinates":[[[77.56521,28.514267],[77.565287,28.514385],[77.565159,28.514449],[77.565083,28.514331],[77.56521,28.514267]]]}},{"type":"Feature","properties":{"name":null,"render_height":6.4,"render_min_height":0.0,"height_source":"ms","source":"ms","building":"ms"},"geometry":{"type":"Polygon","coordinates":[[[77.578718,28.53304],[77.578761,28.533001],[77.578881,28.533101],[77.578838,28.53314],[77.578718,28.53304]]]}},{"type":"Feature","properties":{"name":null,"render_height":6.4,"render_min_height":0.0,"height_source":"ms","source":"ms","building":"ms"},"geometry":{"type":"Polygon","coordinates":[[[77.579589,28.531235],[77.579648,28.531301],[77.579554,28.531366],[77.579495,28.531301],[77.579589,28.531235]]]}},{"type":"Feature","properties":{"name":null,"render_height":6.4,"render_min_height":0.0,"height_source":"ms","source":"ms","building":"ms"},"geometry":{"type":"Polygon","coordinates":[[[77.569343,28.513837],[77.569374,28.51395],[77.569283,28.51397],[77.569252,28.513856],[77.569343,28.513837]]]}},{"type":"Feature","properties":{"name":null,"render_height":6.4,"render_min_height":0.0,"height_source":"ms","source":"ms","building":"ms"},"geometry":{"type":"Polygon","coordinates":[[[77.566811,28.533047],[77.566741,28.533083],[77.566568,28.532822],[77.566553,28.532829],[77.566483,28.532724],[77.566568,28.53268],[77.566811,28.533047]]]}},{"type":"Feature","properties":{"name":null,"render_height":6.4,"render_min_height":0.0,"height_source":"ms","source":"ms","building":"ms"},"geometry":{"type":"Polygon","coordinates":[[[77.566456,28.531137],[77.566524,28.531096],[77.566627,28.531229],[77.566672,28.531202],[77.566703,28.531242],[77.56659,28.53131],[77.566456,28.531137]]]}},{"type":"Feature","properties":{"name":null,"render_height":6.4,"render_min_height":0.0,"height_source":"ms","source":"ms","building":"ms"},"geometry":{"type":"Polygon","coordinates":[[[77.574961,28.526992],[77.57483,28.527035],[77.574736,28.52681],[77.574797,28.52679],[77.57479,28.526774],[77.574859,28.526751],[77.574961,28.526992]]]}},{"type":"Feature","properties":{"name":null,"render_height":6.4,"render_min_height":0.0,"height_source":"ms","source":"ms","building":"ms"},"geometry":{"type":"Polygon","coordinates":[[[77.576991,28.52891],[77.576908,28.528936],[77.576839,28.528768],[77.576893,28.528751],[77.576917,28.52881],[77.577021,28.528777],[77.577076,28.528911],[77.577001,28.528935],[77.576991,28.52891]]]}},{"type":"Feature","properties":{"name":null,"render_height":6.4,"render_min_height":0.0,"height_source":"ms","source":"ms","building":"ms"},"geometry":{"type":"Polygon","coordinates":[[[77.569194,28.5233],[77.569246,28.523399],[77.5692,28.523418],[77.569148,28.523319],[77.569194,28.5233]]]}},{"type":"Feature","properties":{"name":null,"render_height":6.4,"render_min_height":0.0,"height_source":"ms","source":"ms","building":"ms"},"geometry":{"type":"Polygon","coordinates":[[[77.581207,28.531333],[77.58113,28.531386],[77.581071,28.531321],[77.581148,28.531268],[77.581207,28.531333]]]}},{"type":"Feature","properties":{"name":null,"render_height":6.4,"render_min_height":0.0,"height_source":"ms","source":"ms","building":"ms"},"geometry":{"type":"Polygon","coordinates":[[[77.57536,28.518103],[77.575439,28.518198],[77.575376,28.518239],[77.575297,28.518144],[77.57536,28.518103]]]}},{"type":"Feature","properties":{"name":null,"render_height":6.4,"render_min_height":0.0,"height_source":"ms","source":"ms","building":"ms"},"geometry":{"type":"Polygon","coordinates":[[[77.565137,28.51443],[77.565061,28.514471],[77.565003,28.514388],[77.565079,28.514347],[77.565137,28.51443]]]}},{"type":"Feature","properties":{"name":null,"render_height":6.4,"render_min_height":0.0,"height_source":"ms","source":"ms","building":"ms"},"geometry":{"type":"Polygon","coordinates":[[[77.572261,28.533439],[77.572514,28.533245],[77.572567,28.533299],[77.572492,28.533356],[77.572466,28.533329],[77.572287,28.533466],[77.572261,28.533439]]]}},{"type":"Feature","properties":{"name":null,"render_height":6.4,"render_min_height":0.0,"height_source":"ms","source":"ms","building":"ms"},"geometry":{"type":"Polygon","coordinates":[[[77.572492,28.524409],[77.572604,28.524413],[77.572603,28.52446],[77.57249,28.524456],[77.572492,28.524409]]]}},{"type":"Feature","properties":{"name":null,"render_height":6.4,"render_min_height":0.0,"height_source":"ms","source":"ms","building":"ms"},"geometry":{"type":"Polygon","coordinates":[[[77.569722,28.520354],[77.569753,28.520444],[77.569683,28.520463],[77.569652,28.520372],[77.569722,28.520354]]]}},{"type":"Feature","properties":{"name":null,"render_height":6.4,"render_min_height":0.0,"height_source":"ms","source":"ms","building":"ms"},"geometry":{"type":"Polygon","coordinates":[[[77.567233,28.531659],[77.567095,28.53173],[77.567046,28.531658],[77.56705,28.531656],[77.56702,28.531611],[77.567132,28.531553],[77.567162,28.531597],[77.567184,28.531586],[77.567233,28.531659]]]}},{"type":"Feature","properties":{"name":null,"render_height":6.4,"render_min_height":0.0,"height_source":"ms","source":"ms","building":"ms"},"geometry":{"type":"Polygon","coordinates":[[[77.566394,28.513899],[77.566331,28.513951],[77.566284,28.513906],[77.566346,28.513854],[77.566394,28.513899]]]}},{"type":"Feature","properties":{"name":null,"render_height":6.4,"render_min_height":0.0,"height_source":"ms","source":"ms","building":"ms"},"geometry":{"type":"Polygon","coordinates":[[[77.581519,28.53003],[77.581401,28.530109],[77.581211,28.52989],[77.581329,28.529811],[77.581519,28.53003]]]}},{"type":"Feature","properties":{"name":null,"render_height":6.4,"render_min_height":0.0,"height_source":"ms","source":"ms","building":"ms"},"geometry":{"type":"Polygon","coordinates":[[[77.565859,28.520409],[77.565757,28.520455],[77.565726,28.520401],[77.565827,28.520355],[77.565859,28.520409]]]}},{"type":"Feature","properties":{"name":null,"render_height":6.4,"render_min_height":0.0,"height_source":"ms","source":"ms","building":"ms"},"geometry":{"type":"Polygon","coordinates":[[[77.58064,28.528593],[77.580683,28.528642],[77.580634,28.528675],[77.580592,28.528625],[77.58064,28.528593]]]}},{"type":"Feature","properties":{"name":null,"render_height":6.4,"render_min_height":0.0,"height_source":"ms","source":"ms","building":"ms"},"geometry":{"type":"Polygon","coordinates":[[[77.568265,28.513722],[77.56835,28.513691],[77.568412,28.513823],[77.568327,28.513854],[77.568265,28.513722]]]}},{"type":"Feature","properties":{"name":null,"render_height":6.4,"render_min_height":0.0,"height_source":"ms","source":"ms","building":"ms"},"geometry":{"type":"Polygon","coordinates":[[[77.567091,28.531518],[77.566974,28.531571],[77.566928,28.531493],[77.567044,28.53144],[77.567091,28.531518]]]}},{"type":"Feature","properties":{"name":null,"render_height":6.4,"render_min_height":0.0,"height_source":"ms","source":"ms","building":"ms"},"geometry":{"type":"Polygon","coordinates":[[[77.566173,28.513997],[77.566239,28.513945],[77.566285,28.513989],[77.566218,28.514042],[77.566173,28.513997]]]}},{"type":"Feature","properties":{"name":null,"render_height":6.4,"render_min_height":0.0,"height_source":"ms","source":"ms","building":"ms"},"geometry":{"type":"Polygon","coordinates":[[[77.565029,28.532134],[77.565089,28.532227],[77.565022,28.53226],[77.565051,28.532304],[77.564987,28.532336],[77.564964,28.5323],[77.564949,28.532308],[77.564976,28.532349],[77.564922,28.532377],[77.564829,28.532235],[77.565029,28.532134]]]}},{"type":"Feature","properties":{"name":null,"render_height":6.4,"render_min_height":0.0,"height_source":"ms","source":"ms","building":"ms"},"geometry":{"type":"Polygon","coordinates":[[[77.58004,28.52817],[77.580103,28.528146],[77.580132,28.528205],[77.580068,28.528229],[77.58004,28.52817]]]}},{"type":"Feature","properties":{"name":null,"render_height":6.4,"render_min_height":0.0,"height_source":"ms","source":"ms","building":"ms"},"geometry":{"type":"Polygon","coordinates":[[[77.581404,28.532208],[77.581255,28.532233],[77.581231,28.532124],[77.58138,28.532099],[77.581404,28.532208]]]}},{"type":"Feature","properties":{"name":null,"render_height":6.4,"render_min_height":0.0,"height_source":"ms","source":"ms","building":"ms"},"geometry":{"type":"Polygon","coordinates":[[[77.571565,28.513574],[77.571515,28.513615],[77.571485,28.513587],[77.571662,28.513439],[77.571693,28.513467],[77.571714,28.51345],[77.571823,28.513551],[77.571674,28.513675],[77.571565,28.513574]]]}},{"type":"Feature","properties":{"name":null,"render_height":6.4,"render_min_height":0.0,"height_source":"ms","source":"ms","building":"ms"},"geometry":{"type":"Polygon","coordinates":[[[77.579638,28.528072],[77.579549,28.528085],[77.579534,28.528009],[77.579623,28.527996],[77.579638,28.528072]]]}},{"type":"Feature","properties":{"name":null,"render_height":6.4,"render_min_height":0.0,"height_source":"ms","source":"ms","building":"ms"},"geometry":{"type":"Polygon","coordinates":[[[77.570858,28.514027],[77.570943,28.513978],[77.570985,28.514034],[77.5709,28.514083],[77.570858,28.514027]]]}},{"type":"Feature","properties":{"name":null,"render_height":6.4,"render_min_height":0.0,"height_source":"ms","source":"ms","building":"ms"},"geometry":{"type":"Polygon","coordinates":[[[77.577007,28.531606],[77.577119,28.531514],[77.577213,28.531603],[77.577101,28.531695],[77.577007,28.531606]]]}},{"type":"Feature","properties":{"name":null,"render_height":6.4,"render_min_height":0.0,"height_source":"ms","source":"ms","building":"ms"},"geometry":{"type":"Polygon","coordinates":[[[77.565592,28.514872],[77.565736,28.514758],[77.565859,28.514879],[77.565581,28.515097],[77.565244,28.514765],[77.56532,28.514705],[77.565588,28.514969],[77.565645,28.514924],[77.565592,28.514872]]]}},{"type":"Feature","properties":{"name":null,"render_height":6.4,"render_min_height":0.0,"height_source":"ms","source":"ms","building":"ms"},"geometry":{"type":"Polygon","coordinates":[[[77.571721,28.513341],[77.571675,28.513392],[77.571599,28.513338],[77.571645,28.513288],[77.571721,28.513341]]]}},{"type":"Feature","properties":{"name":null,"render_height":6.4,"render_min_height":0.0,"height_source":"ms","source":"ms","building":"ms"},"geometry":{"type":"Polygon","coordinates":[[[77.566838,28.51503],[77.566722,28.515087],[77.566675,28.515011],[77.56679,28.514954],[77.566838,28.51503]]]}},{"type":"Feature","properties":{"name":null,"render_height":6.4,"render_min_height":0.0,"height_source":"ms","source":"ms","building":"ms"},"geometry":{"type":"Polygon","coordinates":[[[77.576223,28.532705],[77.576284,28.532663],[77.576344,28.532729],[77.576283,28.532772],[77.576223,28.532705]]]}},{"type":"Feature","properties":{"name":null,"render_height":6.4,"render_min_height":0.0,"height_source":"ms","source":"ms","building":"ms"},"geometry":{"type":"Polygon","coordinates":[[[77.570523,28.522682],[77.570422,28.52237],[77.569672,28.522558],[77.569726,28.522617],[77.569614,28.522695],[77.569515,28.522586],[77.569758,28.522415],[77.569701,28.52224],[77.569861,28.5222],[77.569923,28.522391],[77.57029,28.5223],[77.570228,28.522231],[77.570359,28.522139],[77.570573,28.522375],[77.570802,28.522317],[77.570846,28.522453],[77.570622,28.522508],[77.570734,28.522851],[77.570478,28.522812],[77.570501,28.522697],[77.570261,28.522865],[77.5703,28.522871],[77.570233,28.522919],[77.570276,28.523053],[77.570068,28.523106],[77.570017,28.52295],[77.569672,28.523036],[77.569709,28.522849],[77.569807,28.522864],[77.56983,28.52289],[77.570131,28.522814],[77.570355,28.522657],[77.570523,28.522682]]]}},{"type":"Feature","properties":{"name":null,"render_height":6.4,"render_min_height":0.0,"height_source":"ms","source":"ms","building":"ms"},"geometry":{"type":"Polygon","coordinates":[[[77.581025,28.53027],[77.581081,28.53024],[77.581026,28.530158],[77.581067,28.530137],[77.581166,28.530282],[77.581068,28.530333],[77.581025,28.53027]]]}},{"type":"Feature","properties":{"name":null,"render_height":6.4,"render_min_height":0.0,"height_source":"ms","source":"ms","building":"ms"},"geometry":{"type":"Polygon","coordinates":[[[77.563951,28.516584],[77.563829,28.516414],[77.563908,28.51637],[77.56392,28.516387],[77.564189,28.516238],[77.564299,28.516392],[77.563951,28.516584]]]}},{"type":"Feature","properties":{"name":null,"render_height":6.4,"render_min_height":0.0,"height_source":"ms","source":"ms","building":"ms"},"geometry":{"type":"Polygon","coordinates":[[[77.569442,28.523959],[77.569438,28.524041],[77.569462,28.524042],[77.569462,28.524054],[77.569388,28.524051],[77.569392,28.523957],[77.569442,28.523959]]]}},{"type":"Feature","properties":{"name":null,"render_height":6.4,"render_min_height":0.0,"height_source":"ms","source":"ms","building":"ms"},"geometry":{"type":"Polygon","coordinates":[[[77.576098,28.532826],[77.576172,28.532916],[77.576073,28.532978],[77.575999,28.532889],[77.576098,28.532826]]]}},{"type":"Feature","properties":{"name":null,"render_height":6.4,"render_min_height":0.0,"height_source":"ms","source":"ms","building":"ms"},"geometry":{"type":"Polygon","coordinates":[[[77.575144,28.517981],[77.57527,28.517929],[77.575322,28.518027],[77.575197,28.518079],[77.575144,28.517981]]]}},{"type":"Feature","properties":{"name":null,"render_height":6.4,"render_min_height":0.0,"height_source":"ms","source":"ms","building":"ms"},"geometry":{"type":"Polygon","coordinates":[[[77.568131,28.533447],[77.56809,28.533462],[77.568053,28.533383],[77.568094,28.533368],[77.568131,28.533447]]]}},{"type":"Feature","properties":{"name":null,"render_height":6.4,"render_min_height":0.0,"height_source":"ms","source":"ms","building":"ms"},"geometry":{"type":"Polygon","coordinates":[[[77.579656,28.529953],[77.579753,28.529873],[77.579853,28.529966],[77.579757,28.530046],[77.579656,28.529953]]]}},{"type":"Feature","properties":{"name":null,"render_height":6.4,"render_min_height":0.0,"height_source":"ms","source":"ms","building":"ms"},"geometry":{"type":"Polygon","coordinates":[[[77.578693,28.530244],[77.57845,28.530313],[77.578435,28.530293],[77.57841,28.530226],[77.578291,28.53026],[77.578218,28.530063],[77.578058,28.530109],[77.577983,28.529905],[77.578072,28.52988],[77.578099,28.529916],[77.578046,28.529771],[77.578119,28.529751],[77.578116,28.529744],[77.578243,28.529708],[77.578283,28.529761],[77.578304,28.529816],[77.57835,28.529803],[77.578382,28.52989],[77.578353,28.529908],[77.578249,28.529937],[77.578313,28.530022],[77.578306,28.530026],[77.578369,28.530108],[77.578337,28.530021],[77.578451,28.529988],[77.578484,28.530078],[77.578617,28.53004],[77.578693,28.530244]]]}},{"type":"Feature","properties":{"name":null,"render_height":6.4,"render_min_height":0.0,"height_source":"ms","source":"ms","building":"ms"},"geometry":{"type":"Polygon","coordinates":[[[77.571713,28.52942],[77.571745,28.529167],[77.571822,28.529175],[77.57179,28.529427],[77.571713,28.52942]]]}},{"type":"Feature","properties":{"name":null,"render_height":6.4,"render_min_height":0.0,"height_source":"ms","source":"ms","building":"ms"},"geometry":{"type":"Polygon","coordinates":[[[77.564041,28.515429],[77.563957,28.51546],[77.563925,28.515394],[77.564009,28.515363],[77.564041,28.515429]]]}},{"type":"Feature","properties":{"name":null,"render_height":6.4,"render_min_height":0.0,"height_source":"ms","source":"ms","building":"ms"},"geometry":{"type":"Polygon","coordinates":[[[77.565388,28.531372],[77.565437,28.531351],[77.5655,28.531459],[77.565451,28.531481],[77.565388,28.531372]]]}},{"type":"Feature","properties":{"name":null,"render_height":6.4,"render_min_height":0.0,"height_source":"ms","source":"ms","building":"ms"},"geometry":{"type":"Polygon","coordinates":[[[77.566651,28.531511],[77.56659,28.531535],[77.56654,28.531436],[77.566657,28.53139],[77.56673,28.531532],[77.566673,28.531554],[77.566651,28.531511]]]}},{"type":"Feature","properties":{"name":null,"render_height":6.4,"render_min_height":0.0,"height_source":"ms","source":"ms","building":"ms"},"geometry":{"type":"Polygon","coordinates":[[[77.581991,28.527892],[77.582124,28.527831],[77.582146,28.527868],[77.582214,28.527837],[77.582234,28.527872],[77.582034,28.527964],[77.581991,28.527892]]]}},{"type":"Feature","properties":{"name":null,"render_height":6.4,"render_min_height":0.0,"height_source":"ms","source":"ms","building":"ms"},"geometry":{"type":"Polygon","coordinates":[[[77.569972,28.51418],[77.569999,28.514169],[77.570017,28.514201],[77.569969,28.514221],[77.570019,28.514314],[77.569962,28.514337],[77.569814,28.514064],[77.569892,28.514032],[77.569972,28.51418]]]}},{"type":"Feature","properties":{"name":null,"render_height":6.4,"render_min_height":0.0,"height_source":"ms","source":"ms","building":"ms"},"geometry":{"type":"Polygon","coordinates":[[[77.576727,28.528888],[77.57674,28.528885],[77.576727,28.528846],[77.576833,28.528819],[77.57687,28.52893],[77.576751,28.52896],[77.576727,28.528888]]]}},{"type":"Feature","properties":{"name":null,"render_height":6.4,"render_min_height":0.0,"height_source":"ms","source":"ms","building":"ms"},"geometry":{"type":"Polygon","coordinates":[[[77.568644,28.514373],[77.568876,28.514326],[77.568903,28.514427],[77.568979,28.514412],[77.568993,28.514464],[77.568774,28.514509],[77.568812,28.51465],[77.568723,28.514668],[77.568644,28.514373]]]}},{"type":"Feature","properties":{"name":null,"render_height":6.4,"render_min_height":0.0,"height_source":"ms","source":"ms","building":"ms"},"geometry":{"type":"Polygon","coordinates":[[[77.58177,28.529241],[77.581928,28.529093],[77.582155,28.52928],[77.582316,28.52913],[77.582424,28.529219],[77.582276,28.529358],[77.582218,28.529311],[77.582086,28.529436],[77.582046,28.529403],[77.582074,28.529376],[77.581992,28.529309],[77.581965,28.529334],[77.581987,28.529352],[77.581948,28.529388],[77.58177,28.529241]]]}},{"type":"Feature","properties":{"name":null,"render_height":6.4,"render_min_height":0.0,"height_source":"ms","source":"ms","building":"ms"},"geometry":{"type":"Polygon","coordinates":[[[77.57079,28.526158],[77.570817,28.52606],[77.570906,28.526078],[77.570879,28.526176],[77.57079,28.526158]]]}},{"type":"Feature","properties":{"name":null,"render_height":6.4,"render_min_height":0.0,"height_source":"ms","source":"ms","building":"ms"},"geometry":{"type":"Polygon","coordinates":[[[77.570833,28.523672],[77.570708,28.523317],[77.570611,28.523379],[77.570605,28.523406],[77.569978,28.523576],[77.570015,28.523621],[77.569925,28.523679],[77.569851,28.52359],[77.569911,28.523574],[77.569882,28.523538],[77.570057,28.523426],[77.570007,28.523283],[77.570172,28.523238],[77.570224,28.523386],[77.570562,28.523294],[77.57061,28.52308],[77.570859,28.52338],[77.571109,28.523313],[77.571157,28.52345],[77.570906,28.523518],[77.57102,28.523843],[77.570787,28.523803],[77.570808,28.523708],[77.57049,28.523911],[77.570604,28.524048],[77.570541,28.524088],[77.570616,28.524068],[77.570636,28.524126],[77.570368,28.52408],[77.570322,28.523948],[77.569975,28.524042],[77.570008,28.523895],[77.570833,28.523672]]]}},{"type":"Feature","properties":{"name":null,"render_height":6.4,"render_min_height":0.0,"height_source":"ms","source":"ms","building":"ms"},"geometry":{"type":"Polygon","coordinates":[[[77.572964,28.527258],[77.573058,28.527227],[77.573116,28.527362],[77.573022,28.527393],[77.572964,28.527258]]]}},{"type":"Feature","properties":{"name":null,"render_height":6.4,"render_min_height":0.0,"height_source":"ms","source":"ms","building":"ms"},"geometry":{"type":"Polygon","coordinates":[[[77.565891,28.532552],[77.565782,28.532402],[77.565918,28.532325],[77.566027,28.532475],[77.565891,28.532552]]]}},{"type":"Feature","properties":{"name":null,"render_height":6.4,"render_min_height":0.0,"height_source":"ms","source":"ms","building":"ms"},"geometry":{"type":"Polygon","coordinates":[[[77.579546,28.530052],[77.579645,28.529972],[77.579741,28.530064],[77.579643,28.530144],[77.579546,28.530052]]]}}]}