{"type":"FeatureCollection","name":"snu_features","features":[{"type":"Feature","properties":{"kind":"water","name":"Lake SNU","sport":null},"geometry":{"type":"Polygon","coordinates":[[[77.577581,28.52568],[77.577501,28.525722],[77.577442,28.525731],[77.577346,28.525641],[77.577267,28.525575],[77.577242,28.525451],[77.577292,28.525373],[77.577478,28.525203],[77.577467,28.524939],[77.577431,28.524779],[77.577477,28.524643],[77.577678,28.524618],[77.577825,28.524582],[77.577944,28.524537],[77.578041,28.524619],[77.578377,28.525122],[77.578228,28.525231],[77.578075,28.525377],[77.578031,28.525314],[77.57795,28.525343],[77.577878,28.525494],[77.577681,28.525699],[77.577581,28.52568]]]}},{"type":"Feature","properties":{"kind":"parking","name":"Parking 1","sport":null},"geometry":{"type":"Polygon","coordinates":[[[77.573695,28.524778],[77.57468,28.524399],[77.574977,28.524294],[77.574999,28.524216],[77.575037,28.524129],[77.575104,28.524007],[77.575104,28.523971],[77.575074,28.523942],[77.575014,28.523923],[77.574907,28.523903],[77.573782,28.52429],[77.57375,28.524441],[77.573715,28.524644],[77.573695,28.524778]]]}},{"type":"Feature","properties":{"kind":"grass","name":null,"sport":null},"geometry":{"type":"Polygon","coordinates":[[[77.573529,28.529568],[77.574259,28.529326],[77.574014,28.528807],[77.573307,28.529074],[77.573529,28.529568]]]}},{"type":"Feature","properties":{"kind":"grass","name":null,"sport":null},"geometry":{"type":"Polygon","coordinates":[[[77.573179,28.52312],[77.573187,28.523106],[77.573258,28.523144],[77.573247,28.523163],[77.573325,28.523184],[77.573398,28.52319],[77.573456,28.523146],[77.573491,28.523091],[77.573501,28.523041],[77.573489,28.522988],[77.573415,28.522915],[77.573404,28.52293],[77.573321,28.522896],[77.57333,28.522875],[77.573281,28.522858],[77.573227,28.522848],[77.573181,28.52285],[77.573149,28.522862],[77.57312,28.522887],[77.573081,28.522935],[77.573067,28.522969],[77.573071,28.523012],[77.573097,28.523048],[77.573138,28.523087],[77.573179,28.52312]]]}},{"type":"Feature","properties":{"kind":"grass","name":null,"sport":null},"geometry":{"type":"Polygon","coordinates":[[[77.576002,28.52558],[77.576003,28.525606],[77.575994,28.525631],[77.575977,28.525653],[77.575954,28.525669],[77.575926,28.525678],[77.575896,28.525678],[77.575867,28.52567],[77.575843,28.525655],[77.575824,28.525632],[77.575816,28.525605],[77.575818,28.525576],[77.575831,28.52555],[77.575853,28.52553],[77.575882,28.525517],[77.575914,28.525514],[77.575945,28.52552],[77.575973,28.525535],[77.575991,28.525555],[77.576002,28.52558]]]}},{"type":"Feature","properties":{"kind":"grass","name":null,"sport":null},"geometry":{"type":"Polygon","coordinates":[[[77.573639,28.52332],[77.573931,28.523472],[77.573954,28.523442],[77.573956,28.523417],[77.573944,28.523392],[77.573731,28.523279],[77.573704,28.523268],[77.573676,28.523271],[77.573659,28.523285],[77.573639,28.52332]]]}},{"type":"Feature","properties":{"kind":"grass","name":null,"sport":null},"geometry":{"type":"Polygon","coordinates":[[[77.573775,28.523157],[77.57405,28.523302],[77.574033,28.523328],[77.574021,28.523344],[77.573993,28.523349],[77.5738,28.523255],[77.573763,28.523237],[77.573747,28.523218],[77.573752,28.523187],[77.573775,28.523157]]]}},{"type":"Feature","properties":{"kind":"grass","name":null,"sport":null},"geometry":{"type":"Polygon","coordinates":[[[77.573595,28.523147],[77.573612,28.523145],[77.573629,28.523149],[77.573644,28.523157],[77.573655,28.523169],[77.573661,28.523184],[77.57366,28.523199],[77.573654,28.523214],[77.573643,28.523226],[77.573628,28.523233],[77.573611,28.523237],[77.573593,28.523235],[77.573579,28.523228],[77.573567,28.523218],[77.57356,28.523205],[77.573557,28.523191],[77.57356,28.523177],[77.573567,28.523164],[77.573579,28.523153],[77.573595,28.523147]]]}},{"type":"Feature","properties":{"kind":"grass","name":null,"sport":null},"geometry":{"type":"Polygon","coordinates":[[[77.573405,28.524463],[77.573418,28.524474],[77.573425,28.524489],[77.573427,28.524504],[77.573423,28.52452],[77.573413,28.524533],[77.573398,28.524542],[77.57338,28.524546],[77.573363,28.524545],[77.573346,28.524538],[77.573335,28.524529],[77.573327,28.524517],[77.573324,28.524503],[77.573325,28.524489],[77.573331,28.524477],[77.573342,28.524466],[77.573355,28.524459],[77.57337,28.524455],[77.573388,28.524457],[77.573405,28.524463]]]}},{"type":"Feature","properties":{"kind":"grass","name":null,"sport":null},"geometry":{"type":"Polygon","coordinates":[[[77.573967,28.52557],[77.57494,28.525251],[77.574972,28.52537],[77.575009,28.525504],[77.575022,28.525552],[77.575048,28.525633],[77.575078,28.525731],[77.575182,28.525936],[77.575316,28.52615],[77.575407,28.526262],[77.575501,28.526378],[77.575552,28.526425],[77.575575,28.526475],[77.575621,28.526578],[77.575633,28.526606],[77.575637,28.526672],[77.575654,28.52671],[77.575711,28.526837],[77.575766,28.526961],[77.575841,28.527129],[77.575891,28.527238],[77.575948,28.527365],[77.576008,28.527498],[77.576062,28.527617],[77.576118,28.527745],[77.576175,28.527873],[77.576182,28.527888],[77.576189,28.527913],[77.576182,28.527933],[77.576162,28.527945],[77.57535,28.528216],[77.575175,28.52828],[77.574794,28.527395],[77.574574,28.526859],[77.573967,28.52557]]]}},{"type":"Feature","properties":{"kind":"grass","name":null,"sport":null},"geometry":{"type":"Polygon","coordinates":[[[77.573893,28.53068],[77.57304,28.529927],[77.573475,28.529774],[77.573893,28.53068]]]}},{"type":"Feature","properties":{"kind":"grass","name":null,"sport":null},"geometry":{"type":"Polygon","coordinates":[[[77.57532,28.52909],[77.573585,28.529719],[77.574058,28.53075],[77.575135,28.531823],[77.576104,28.531299],[77.576181,28.53137],[77.576572,28.531121],[77.576924,28.531261],[77.577451,28.531669],[77.57766,28.531439],[77.577114,28.531008],[77.577207,28.530824],[77.576156,28.530037],[77.57532,28.52909]]]}},{"type":"Feature","properties":{"kind":"grass","name":null,"sport":null},"geometry":{"type":"Polygon","coordinates":[[[77.572943,28.524587],[77.572947,28.524564],[77.573032,28.524571],[77.57303,28.524594],[77.573168,28.524605],[77.573224,28.524574],[77.573246,28.524391],[77.573197,28.524351],[77.573081,28.524336],[77.573077,28.524361],[77.57297,28.524351],[77.572972,28.524326],[77.572866,28.524311],[77.572805,28.524342],[77.57278,28.524532],[77.572837,28.524578],[77.572943,28.524587]]]}},{"type":"Feature","properties":{"kind":"grass","name":null,"sport":null},"geometry":{"type":"Polygon","coordinates":[[[77.570849,28.526526],[77.571836,28.526188],[77.5716,28.525655],[77.570612,28.525994],[77.570849,28.526526]]]}},{"type":"Feature","properties":{"kind":"sport","name":"Basketball Court","sport":"basketball"},"geometry":{"type":"Polygon","coordinates":[[[77.571885,28.524973],[77.572065,28.525038],[77.571942,28.525297],[77.571763,28.525231],[77.571885,28.524973]]]}},{"type":"Feature","properties":{"kind":"grass","name":null,"sport":null},"geometry":{"type":"Polygon","coordinates":[[[77.576454,28.528159],[77.575759,28.526638],[77.575936,28.526755],[77.576094,28.526842],[77.576267,28.526935],[77.576421,28.527003],[77.576568,28.527052],[77.576611,28.527084],[77.576454,28.528159]]]}},{"type":"Feature","properties":{"kind":"sport","name":"Volleyball Court","sport":"volleyball"},"geometry":{"type":"Polygon","coordinates":[[[77.571593,28.524593],[77.57189,28.524496],[77.571789,28.524259],[77.571493,28.524355],[77.571593,28.524593]]]}},{"type":"Feature","properties":{"kind":"sport","name":"Tennis Courts","sport":"tennis"},"geometry":{"type":"Polygon","coordinates":[[[77.571315,28.524251],[77.571691,28.524123],[77.571557,28.523826],[77.571181,28.523954],[77.571315,28.524251]]]}},{"type":"Feature","properties":{"kind":"sport","name":"Basketball Courts","sport":"basketball"},"geometry":{"type":"Polygon","coordinates":[[[77.570889,28.524393],[77.571292,28.524253],[77.571163,28.523966],[77.57076,28.524105],[77.570889,28.524393]]]}},{"type":"Feature","properties":{"kind":"sport","name":"Squash Courts","sport":"squash"},"geometry":{"type":"Polygon","coordinates":[[[77.571716,28.524112],[77.571879,28.524055],[77.571745,28.523758],[77.571582,28.523815],[77.571716,28.524112]]]}},{"type":"Feature","properties":{"kind":"parking","name":null,"sport":null},"geometry":{"type":"Polygon","coordinates":[[[77.577468,28.527432],[77.577348,28.52713],[77.577354,28.52703],[77.578157,28.526753],[77.578314,28.527131],[77.577468,28.527432]]]}},{"type":"Feature","properties":{"kind":"construction","name":"Hostels (under construction)","sport":null},"geometry":{"type":"Polygon","coordinates":[[[77.5719,28.521734],[77.571731,28.521624],[77.571673,28.521522],[77.572791,28.521129],[77.573177,28.521705],[77.572842,28.52197],[77.572902,28.522134],[77.572658,28.522217],[77.57252,28.522198],[77.572336,28.522263],[77.572238,28.522266],[77.572105,28.522175],[77.5719,28.521734]]]}},{"type":"Feature","properties":{"kind":"grass","name":null,"sport":null},"geometry":{"type":"Polygon","coordinates":[[[77.57174,28.528469],[77.572701,28.528125],[77.571856,28.526256],[77.57087,28.526602],[77.57174,28.528469]]]}},{"type":"Feature","properties":{"kind":"sport","name":"Golf Course","sport":null},"geometry":{"type":"Polygon","coordinates":[[[77.573391,28.529602],[77.572894,28.529785],[77.572563,28.529453],[77.572213,28.529039],[77.571877,28.528566],[77.572767,28.528245],[77.573391,28.529602]]]}},{"type":"Feature","properties":{"kind":"construction","name":null,"sport":null},"geometry":{"type":"Polygon","coordinates":[[[77.577351,28.527022],[77.578311,28.526694],[77.578267,28.526595],[77.578207,28.526468],[77.578166,28.526348],[77.578013,28.526157],[77.577828,28.525921],[77.577486,28.525984],[77.577351,28.527022]]]}},{"type":"Feature","properties":{"kind":"grass","name":null,"sport":null},"geometry":{"type":"Polygon","coordinates":[[[77.572334,28.526981],[77.574161,28.526356],[77.573552,28.524997],[77.571722,28.525638],[77.572334,28.526981]]]}},{"type":"Feature","properties":{"kind":"sport","name":"Badminton Courts","sport":"badminton"},"geometry":{"type":"Polygon","coordinates":[[[77.572079,28.525196],[77.572142,28.525063],[77.572319,28.525128],[77.572256,28.525261],[77.572079,28.525196]]]}},{"type":"Feature","properties":{"kind":"water","name":null,"sport":null},"geometry":{"type":"Polygon","coordinates":[[[77.568854,28.521777],[77.56889,28.521847],[77.569207,28.522146],[77.569229,28.522154],[77.569262,28.522153],[77.569286,28.52214],[77.569325,28.522062],[77.569331,28.521947],[77.569318,28.521858],[77.569288,28.521765],[77.568928,28.521011],[77.568896,28.520999],[77.568864,28.521006],[77.568501,28.521367],[77.568496,28.521393],[77.568503,28.521417],[77.568854,28.521777]]]}},{"type":"Feature","properties":{"kind":"farmland","name":null,"sport":null},"geometry":{"type":"Polygon","coordinates":[[[77.573732,28.531382],[77.573121,28.530677],[77.572806,28.530852],[77.572212,28.530158],[77.572016,28.530261],[77.571449,28.529515],[77.57158,28.529075],[77.571571,28.528709],[77.571207,28.528209],[77.569522,28.52478],[77.567741,28.521978],[77.568638,28.521776],[77.568221,28.521391],[77.569654,28.520079],[77.57006,28.520545],[77.571795,28.519036],[77.573068,28.517679],[77.573533,28.518016],[77.573819,28.517655],[77.573412,28.517384],[77.573736,28.517042],[77.574018,28.517305],[77.57425,28.517266],[77.574683,28.51775],[77.575053,28.517566],[77.57528,28.517775],[77.576953,28.520793],[77.579497,28.518669],[77.579758,28.518988],[77.581237,28.518944],[77.58228,28.520096],[77.588495,28.516521],[77.585857,28.514301],[77.581816,28.508616],[77.58056,28.5088],[77.57938,28.50763],[77.577018,28.508884],[77.574769,28.506003],[77.573711,28.505951],[77.56978,28.507799],[77.570208,28.50833],[77.570834,28.508223],[77.571623,28.509367],[77.570126,28.51015],[77.570209,28.510489],[77.571204,28.51113],[77.571591,28.512012],[77.574309,28.511759],[77.574617,28.51228],[77.572691,28.513183],[77.572449,28.51341],[77.572059,28.513774],[77.569136,28.515362],[77.56737,28.514505],[77.564589,28.516967],[77.562112,28.519946],[77.563031,28.527074],[77.570487,28.534339],[77.572533,28.533083],[77.573322,28.533982],[77.574397,28.533113],[77.573952,28.53272],[77.574023,28.532628],[77.573258,28.531955],[77.573732,28.531382]]]}},{"type":"Feature","properties":{"kind":"farmland","name":null,"sport":null},"geometry":{"type":"Polygon","coordinates":[[[77.582748,28.527279],[77.583823,28.526494],[77.582969,28.52549],[77.584007,28.524747],[77.585365,28.526271],[77.586502,28.525624],[77.586088,28.525125],[77.586682,28.524817],[77.58641,28.524431],[77.588237,28.523403],[77.588876,28.52402],[77.589775,28.523406],[77.58896,28.522345],[77.588655,28.521904],[77.589144,28.521735],[77.589363,28.520973],[77.589253,28.520461],[77.589202,28.520031],[77.588592,28.520351],[77.588011,28.519602],[77.5885,28.519367],[77.588437,28.519043],[77.588111,28.519187],[77.587886,28.518959],[77.587744,28.519043],[77.587631,28.518908],[77.587756,28.51883],[77.587647,28.518698],[77.587472,28.5185],[77.586844,28.517772],[77.586168,28.518166],[77.58478,28.519021],[77.584182,28.519344],[77.584571,28.519932],[77.583764,28.520406],[77.581855,28.521635],[77.581576,28.522856],[77.580337,28.523257],[77.578617,28.523371],[77.578193,28.523706],[77.578136,28.524259],[77.578119,28.524419],[77.578937,28.525404],[77.578813,28.525588],[77.578933,28.525955],[77.579191,28.526604],[77.579486,28.527018],[77.581077,28.526337],[77.581658,28.526109],[77.582748,28.527279]]]}},{"type":"Feature","properties":{"kind":"farmland","name":null,"sport":null},"geometry":{"type":"Polygon","coordinates":[[[77.589298,28.529137],[77.589475,28.529585],[77.590763,28.529244],[77.590864,28.529598],[77.592142,28.529075],[77.59249,28.530086],[77.593535,28.529816],[77.593936,28.530463],[77.595251,28.529456],[77.59546,28.529578],[77.596225,28.529787],[77.595945,28.530075],[77.596133,28.530263],[77.597325,28.529051],[77.598611,28.530475],[77.597914,28.531098],[77.599077,28.53204],[77.598545,28.532279],[77.599328,28.534606],[77.600057,28.534499],[77.599521,28.536405],[77.598972,28.537758],[77.596937,28.538382],[77.59537,28.538605],[77.595102,28.538135],[77.594446,28.538299],[77.593562,28.536346],[77.59316,28.535829],[77.592262,28.535734],[77.59178,28.535311],[77.591489,28.534262],[77.590515,28.53455],[77.590873,28.535493],[77.590011,28.535586],[77.590336,28.537472],[77.589296,28.538115],[77.58858,28.539065],[77.588775,28.539686],[77.586246,28.539686],[77.585832,28.538336],[77.585832,28.537415],[77.583888,28.538],[77.583645,28.537743],[77.582368,28.538093],[77.580888,28.538107],[77.580725,28.537693],[77.581319,28.537357],[77.580864,28.536665],[77.580262,28.536993],[77.580018,28.536686],[77.579823,28.535636],[77.579677,28.535022],[77.579246,28.534443],[77.579766,28.533036],[77.58027,28.532129],[77.580895,28.531617],[77.581264,28.53251],[77.581583,28.532355],[77.582126,28.533594],[77.583702,28.533098],[77.58287,28.531326],[77.582746,28.531364],[77.582628,28.531173],[77.583102,28.530976],[77.583167,28.531114],[77.5853,28.5305],[77.584795,28.529274],[77.585185,28.529025],[77.584827,28.528511],[77.585344,28.528028],[77.586002,28.527567],[77.58653,28.528178],[77.58743,28.527666],[77.588209,28.529471],[77.589298,28.529137]]]}},{"type":"Feature","properties":{"kind":"grass","name":null,"sport":null},"geometry":{"type":"Polygon","coordinates":[[[77.575321,28.526034],[77.575347,28.526042],[77.57538,28.526034],[77.575603,28.525868],[77.575623,28.52583],[77.575621,28.525776],[77.575551,28.525652],[77.575504,28.525615],[77.575435,28.525614],[77.57518,28.525654],[77.575149,28.525672],[77.575142,28.525701],[77.575321,28.526034]]]}},{"type":"Feature","properties":{"kind":"grass","name":null,"sport":null},"geometry":{"type":"Polygon","coordinates":[[[77.573854,28.527745],[77.573728,28.527417],[77.5736,28.527457],[77.573466,28.527107],[77.573586,28.527062],[77.573449,28.526727],[77.57422,28.526444],[77.574674,28.52746],[77.573854,28.527745]]]}},{"type":"Feature","properties":{"kind":"grass","name":null,"sport":null},"geometry":{"type":"Polygon","coordinates":[[[77.576795,28.526301],[77.576792,28.526313],[77.576795,28.526323],[77.576806,28.52633],[77.576816,28.526332],[77.576829,28.526329],[77.576836,28.526321],[77.576896,28.526345],[77.576878,28.526385],[77.576838,28.526413],[77.576777,28.526418],[77.576731,28.526391],[77.576716,28.526358],[77.576715,28.526304],[77.576795,28.526301]]]}},{"type":"Feature","properties":{"kind":"grass","name":null,"sport":null},"geometry":{"type":"Polygon","coordinates":[[[77.576295,28.52686],[77.576497,28.526942],[77.576746,28.527019],[77.576782,28.526722],[77.57678,28.526703],[77.576768,28.526682],[77.576552,28.526598],[77.576531,28.526601],[77.57651,28.526613],[77.576295,28.52686]]]}},{"type":"Feature","properties":{"kind":"grass","name":null,"sport":null},"geometry":{"type":"Polygon","coordinates":[[[77.575029,28.525338],[77.575112,28.525326],[77.575105,28.525269],[77.576518,28.525078],[77.576512,28.524966],[77.576532,28.524824],[77.57503,28.524685],[77.574995,28.524786],[77.574988,28.524973],[77.575002,28.525215],[77.575029,28.525338]]]}},{"type":"Feature","properties":{"kind":"grass","name":null,"sport":null},"geometry":{"type":"Polygon","coordinates":[[[77.573248,28.528953],[77.573841,28.528746],[77.573498,28.527987],[77.572905,28.528193],[77.573248,28.528953]]]}},{"type":"Feature","properties":{"kind":"green","name":null,"sport":null},"geometry":{"type":"Polygon","coordinates":[[[77.573385,28.5219],[77.573054,28.521461],[77.573735,28.52082],[77.573947,28.52071],[77.574134,28.520946],[77.573956,28.52133],[77.573803,28.521659],[77.57363,28.521803],[77.573385,28.5219]]]}},{"type":"Feature","properties":{"kind":"grass","name":null,"sport":null},"geometry":{"type":"Polygon","coordinates":[[[77.573791,28.522435],[77.573341,28.521989],[77.572536,28.522278],[77.572506,28.522225],[77.572228,28.522318],[77.572338,28.522371],[77.572466,28.522401],[77.572584,28.522393],[77.572739,28.522354],[77.572864,28.522292],[77.572941,28.522243],[77.573031,28.522239],[77.573113,28.522268],[77.573164,28.522303],[77.573199,28.522362],[77.573247,28.522338],[77.573295,28.522302],[77.573356,28.522291],[77.573425,28.522304],[77.573502,28.522318],[77.57358,28.522344],[77.573791,28.522435]]]}},{"type":"Feature","properties":{"kind":"grass","name":"Ground","sport":null},"geometry":{"type":"Polygon","coordinates":[[[77.575288,28.518747],[77.575477,28.518887],[77.575603,28.519074],[77.575653,28.519287],[77.57562,28.519503],[77.575508,28.519697],[77.57533,28.519848],[77.575105,28.51994],[77.574859,28.519961],[77.574618,28.51991],[77.574416,28.519797],[77.574265,28.519634],[77.574181,28.519437],[77.574173,28.519226],[77.574242,28.519024],[77.57438,28.518852],[77.574573,28.518728],[77.574809,28.518663],[77.575056,28.518669],[77.575288,28.518747]]]}},{"type":"Feature","properties":{"kind":"grass","name":null,"sport":null},"geometry":{"type":"Polygon","coordinates":[[[77.574345,28.529293],[77.575333,28.528963],[77.575265,28.528811],[77.575082,28.528397],[77.574095,28.528735],[77.574345,28.529293]]]}},{"type":"Feature","properties":{"kind":"sport","name":"Football Ground","sport":"soccer"},"geometry":{"type":"Polygon","coordinates":[[[77.571325,28.522945],[77.57197,28.522716],[77.57152,28.521736],[77.570874,28.521966],[77.571325,28.522945]]]}},{"type":"Feature","properties":{"kind":"sport","name":"Chess Garden","sport":"chess"},"geometry":{"type":"Polygon","coordinates":[[[77.572011,28.524012],[77.57219,28.523946],[77.572118,28.523796],[77.571939,28.523862],[77.572011,28.524012]]]}},{"type":"Feature","properties":{"kind":"construction","name":null,"sport":null},"geometry":{"type":"Polygon","coordinates":[[[77.569641,28.521988],[77.569254,28.521085],[77.569722,28.520921],[77.569783,28.521067],[77.569998,28.520974],[77.570366,28.521746],[77.569641,28.521988]]]}},{"type":"Feature","properties":{"kind":"construction","name":"Hostels (under construction)","sport":null},"geometry":{"type":"Polygon","coordinates":[[[77.571663,28.521322],[77.57104,28.520015],[77.571356,28.519711],[77.5718,28.519375],[77.57204,28.519307],[77.572378,28.519306],[77.573038,28.520839],[77.571663,28.521322]]]}},{"type":"Feature","properties":{"kind":"green","name":null,"sport":null},"geometry":{"type":"Polygon","coordinates":[[[77.570151,28.52113],[77.571226,28.52072],[77.570918,28.520028],[77.570001,28.520796],[77.570151,28.52113]]]}},{"type":"Feature","properties":{"kind":"green","name":"Shivaji park","sport":null},"geometry":{"type":"Polygon","coordinates":[[[77.570849,28.526526],[77.571836,28.526188],[77.5716,28.525655],[77.570612,28.525994],[77.570849,28.526526]]]}},{"type":"Feature","properties":{"kind":"construction","name":null,"sport":null},"geometry":{"type":"Polygon","coordinates":[[[77.573199,28.520748],[77.57253,28.519285],[77.573011,28.519228],[77.573539,28.519044],[77.574144,28.520415],[77.573199,28.520748]]]}},{"type":"Feature","properties":{"kind":"water","name":null,"sport":null},"geometry":{"type":"Polygon","coordinates":[[[77.577883,28.524334],[77.577838,28.524214],[77.577761,28.524072],[77.577692,28.523897],[77.577749,28.523862],[77.577937,28.523826],[77.578043,28.524081],[77.578071,28.524209],[77.577978,28.524307],[77.577883,28.524334]]]}},{"type":"Feature","properties":{"kind":"water","name":null,"sport":null},"geometry":{"type":"Polygon","coordinates":[[[77.572531,28.513807],[77.572706,28.513814],[77.572797,28.513766],[77.57284,28.513656],[77.57277,28.513535],[77.572751,28.513385],[77.572603,28.513356],[77.572449,28.51341],[77.572289,28.513384],[77.572316,28.513496],[77.572378,28.513576],[77.572399,28.513712],[77.572458,28.513779],[77.572531,28.513807]]]}},{"type":"Feature","properties":{"kind":"water","name":null,"sport":null},"geometry":{"type":"Polygon","coordinates":[[[77.572922,28.514663],[77.573038,28.514689],[77.573121,28.5147],[77.573187,28.514709],[77.573239,28.514725],[77.573232,28.514676],[77.573249,28.514605],[77.573343,28.514605],[77.573331,28.514556],[77.573284,28.514521],[77.573164,28.514511],[77.572961,28.514602],[77.572917,28.514634],[77.572922,28.514663]]]}},{"type":"Feature","properties":{"kind":"water","name":null,"sport":null},"geometry":{"type":"Polygon","coordinates":[[[77.574553,28.514237],[77.574611,28.514207],[77.57467,28.514164],[77.57467,28.514092],[77.574631,28.514012],[77.574582,28.513924],[77.574518,28.513863],[77.574429,28.513827],[77.574336,28.5139],[77.574304,28.513952],[77.574368,28.514118],[77.574477,28.514209],[77.574553,28.514237]]]}},{"type":"Feature","properties":{"kind":"water","name":null,"sport":null},"geometry":{"type":"Polygon","coordinates":[[[77.579852,28.523353],[77.579608,28.5226],[77.580379,28.522344],[77.580764,28.523007],[77.58056,28.523277],[77.580324,28.523318],[77.579852,28.523353]]]}},{"type":"Feature","properties":{"kind":"sport","name":"Cricket Ground","sport":"cricket"},"geometry":{"type":"Polygon","coordinates":[[[77.573731,28.526053],[77.573669,28.526247],[77.573545,28.526418],[77.573369,28.526548],[77.573157,28.526627],[77.572928,28.526648],[77.572703,28.526608],[77.5725,28.526512],[77.572339,28.526368],[77.572291,28.526187],[77.57224,28.525984],[77.572221,28.525789],[77.572315,28.525604],[77.572467,28.525452],[77.572663,28.525346],[77.572885,28.525296],[77.573115,28.525305],[77.573332,28.525374],[77.573515,28.525495],[77.57365,28.525659],[77.573724,28.525851],[77.573731,28.526053]]]}},{"type":"Feature","properties":{"kind":"green","name":"SNU Biodiversity Park","sport":null},"geometry":{"type":"Polygon","coordinates":[[[77.576365,28.522864],[77.577393,28.52253],[77.577266,28.522275],[77.5771,28.522065],[77.576986,28.521948],[77.576732,28.521816],[77.57656,28.521679],[77.576419,28.521493],[77.57635,28.521283],[77.576373,28.521064],[77.576375,28.52077],[77.576282,28.520435],[77.57618,28.520154],[77.576072,28.51992],[77.574998,28.520292],[77.57522,28.52045],[77.575322,28.520591],[77.576365,28.522864]]]}},{"type":"Feature","properties":{"kind":"grass","name":null,"sport":null},"geometry":{"type":"Polygon","coordinates":[[[77.572903,28.522921],[77.573019,28.52298],[77.57311,28.522841],[77.572994,28.522782],[77.572903,28.522921]]]}},{"type":"Feature","properties":{"kind":"grass","name":null,"sport":null},"geometry":{"type":"Polygon","coordinates":[[[77.573627,28.523042],[77.573756,28.522984],[77.573744,28.522954],[77.573793,28.522937],[77.573772,28.522894],[77.573716,28.522869],[77.573577,28.522747],[77.573707,28.522551],[77.573517,28.522453],[77.573389,28.522655],[77.573142,28.522583],[77.573207,28.522494],[77.573357,28.522564],[77.57341,28.522486],[77.573257,28.5224],[77.573297,28.522355],[77.573343,28.522331],[77.573427,28.522341],[77.573556,28.522379],[77.573712,28.522444],[77.573794,28.5225],[77.573843,28.522568],[77.573908,28.522699],[77.57401,28.522934],[77.574081,28.523044],[77.574138,28.523105],[77.574194,28.523166],[77.57417,28.523203],[77.574144,28.523204],[77.5741,28.523233],[77.574071,28.523279],[77.573627,28.523042]]]}},{"type":"Feature","properties":{"kind":"sport","name":null,"sport":"running"},"geometry":{"type":"Polygon","coordinates":[[[77.577128,28.529748],[77.576336,28.529086],[77.576282,28.529061],[77.576224,28.529044],[77.576164,28.529035],[77.576103,28.529035],[77.576043,28.529045],[77.575985,28.529062],[77.575931,28.529088],[77.575883,28.529121],[77.575842,28.529161],[77.575809,28.529206],[77.575784,28.529255],[77.57577,28.529308],[77.575765,28.529361],[77.57577,28.529415],[77.575786,28.529467],[77.575811,28.529516],[77.576587,28.53019],[77.576629,28.530229],[77.576677,28.530262],[77.576731,28.530287],[77.576789,28.530304],[77.576849,28.530313],[77.576911,28.530313],[77.576971,28.530304],[77.577029,28.530286],[77.577082,28.53026],[77.57713,28.530227],[77.577172,28.530187],[77.577205,28.530142],[77.577229,28.530093],[77.577244,28.530041],[77.577248,28.529987],[77.577243,28.529934],[77.577228,28.529882],[77.577203,28.529833],[77.577169,28.529788],[77.577128,28.529748]]]}},{"type":"Feature","properties":{"kind":"green","name":null,"sport":null},"geometry":{"type":"Polygon","coordinates":[[[77.574432,28.523089],[77.574248,28.522848],[77.574073,28.522912],[77.573856,28.522488],[77.573342,28.521972],[77.572911,28.522125],[77.572884,28.521952],[77.573009,28.521896],[77.573091,28.521808],[77.573221,28.521721],[77.573382,28.521912],[77.57366,28.521807],[77.573838,28.521645],[77.57415,28.520943],[77.573952,28.520694],[77.574602,28.520453],[77.574805,28.520451],[77.575012,28.520519],[77.575138,28.520654],[77.57572,28.521927],[77.576193,28.522981],[77.575761,28.523235],[77.575582,28.523401],[77.575389,28.523582],[77.574432,28.523089]]]}},{"type":"Feature","properties":{"kind":"grass","name":null,"sport":null},"geometry":{"type":"Polygon","coordinates":[[[77.572537,28.525098],[77.572353,28.524991],[77.572129,28.524819],[77.572038,28.524742],[77.571803,28.524201],[77.572632,28.523892],[77.572611,28.524098],[77.572454,28.523982],[77.572361,28.524091],[77.572296,28.524275],[77.572094,28.524257],[77.572044,28.524342],[77.57209,28.524423],[77.57226,28.524463],[77.572292,28.524737],[77.572356,28.524811],[77.572512,28.524732],[77.572498,28.524817],[77.57244,28.524809],[77.572425,28.524942],[77.572484,28.524945],[77.572537,28.525098]]]}},{"type":"Feature","properties":{"kind":"parking","name":null,"sport":null},"geometry":{"type":"Polygon","coordinates":[[[77.572432,28.524934],[77.572486,28.524939],[77.5725,28.524821],[77.572446,28.524815],[77.572432,28.524934]]]}},{"type":"Feature","properties":{"kind":"water","name":null,"sport":null},"geometry":{"type":"LineString","coordinates":[[77.551991,28.618495],[77.552233,28.617867],[77.555972,28.608599],[77.557619,28.604488],[77.56345,28.595271],[77.565827,28.591898],[77.569657,28.586712],[77.571213,28.584611],[77.571476,28.584206],[77.572044,28.582181],[77.572436,28.580725],[77.572881,28.579086],[77.573144,28.578191],[77.573503,28.576787],[77.573954,28.575034],[77.57419,28.574271],[77.574635,28.572575],[77.574834,28.571925],[77.575295,28.570187],[77.575654,28.568872],[77.576105,28.567209],[77.576759,28.564797],[77.577521,28.562121],[77.579018,28.556599],[77.580477,28.551133],[77.58163,28.546953],[77.581684,28.546439],[77.581561,28.545879],[77.581325,28.545313],[77.580874,28.544696],[77.579688,28.543499],[77.577961,28.541802],[77.5775,28.541355],[77.575349,28.539258],[77.573637,28.537604],[77.572125,28.536195],[77.571574,28.535653],[77.57093,28.535009],[77.570732,28.534812],[77.57058,28.534672],[77.568916,28.53305],[77.565798,28.530084],[77.563034,28.527394],[77.562837,28.527113],[77.562754,28.526552],[77.562466,28.524588],[77.562012,28.521308],[77.561613,28.518321],[77.561423,28.516743],[77.561258,28.515734],[77.560739,28.511333]]}},{"type":"Feature","properties":{"kind":"green","name":null,"sport":null},"geometry":{"type":"LineString","coordinates":[[77.569027,28.522014],[77.569198,28.522181],[77.569254,28.522191],[77.569308,28.522177],[77.569343,28.52213],[77.56937,28.522054],[77.569375,28.521927],[77.569351,28.521811],[77.568962,28.520994]]}},{"type":"Feature","properties":{"kind":"green","name":null,"sport":null},"geometry":{"type":"LineString","coordinates":[[77.569214,28.521109],[77.569625,28.522021],[77.57037,28.521776]]}},{"type":"Feature","properties":{"kind":"green","name":null,"sport":null},"geometry":{"type":"LineString","coordinates":[[77.569678,28.522101],[77.570381,28.52187]]}},{"type":"Feature","properties":{"kind":"sport","name":null,"sport":"soccer"},"geometry":{"type":"Polygon","coordinates":[[[77.571577,28.522947],[77.571978,28.522802],[77.572227,28.523332],[77.571826,28.523477],[77.571577,28.522947]]]}},{"type":"Feature","properties":{"kind":"green","name":null,"sport":null},"geometry":{"type":"Polygon","coordinates":[[[77.57281,28.521121],[77.573038,28.521444],[77.573797,28.520744],[77.57281,28.521121]]]}},{"type":"Feature","properties":{"kind":"sport","name":null,"sport":"equestrian"},"geometry":{"type":"Polygon","coordinates":[[[77.574885,28.518545],[77.575367,28.518732],[77.575491,28.518485],[77.575009,28.518297],[77.574885,28.518545]]]}}]}