{"type":"FeatureCollection","name":"snu_labels","features":[{"type":"Feature","properties":{"name":"Shiv Nadar University","kind":"campus","sort_key":0,"minzoom":12},"geometry":{"type":"Point","coordinates":[77.574572,28.525541]}},{"type":"Feature","properties":{"name":"Block A","kind":"building","sort_key":10,"minzoom":15.5},"geometry":{"type":"Point","coordinates":[77.577075,28.526376]}},{"type":"Feature","properties":{"name":"Block B","kind":"building","sort_key":10,"minzoom":15.5},"geometry":{"type":"Point","coordinates":[77.576545,28.526195]}},{"type":"Feature","properties":{"name":"Block C","kind":"building","sort_key":10,"minzoom":15.5},"geometry":{"type":"Point","coordinates":[77.576066,28.525818]}},{"type":"Feature","properties":{"name":"Block D","kind":"building","sort_key":10,"minzoom":15.5},"geometry":{"type":"Point","coordinates":[77.575813,28.525336]}},{"type":"Feature","properties":{"name":"Central Library","kind":"building","sort_key":10,"minzoom":15.5},"geometry":{"type":"Point","coordinates":[77.57427,28.52499]}},{"type":"Feature","properties":{"name":"Indoor Sports Complex","kind":"building","sort_key":10,"minzoom":15.5},"geometry":{"type":"Point","coordinates":[77.570858,28.521279]}},{"type":"Feature","properties":{"name":"Hostel 1A","kind":"building","sort_key":20,"minzoom":16},"geometry":{"type":"Point","coordinates":[77.572987,28.524757]}},{"type":"Feature","properties":{"name":"Hostel 1B","kind":"building","sort_key":20,"minzoom":16},"geometry":{"type":"Point","coordinates":[77.573058,28.524157]}},{"type":"Feature","properties":{"name":"Hostel 1C","kind":"building","sort_key":20,"minzoom":16},"geometry":{"type":"Point","coordinates":[77.572378,28.52439]}},{"type":"Feature","properties":{"name":"Hostel 2A","kind":"building","sort_key":20,"minzoom":16},"geometry":{"type":"Point","coordinates":[77.573114,28.523283]}},{"type":"Feature","properties":{"name":"Hostel 2B","kind":"building","sort_key":20,"minzoom":16},"geometry":{"type":"Point","coordinates":[77.573455,28.522752]}},{"type":"Feature","properties":{"name":"Hostel 2C","kind":"building","sort_key":20,"minzoom":16},"geometry":{"type":"Point","coordinates":[77.572738,28.522727]}},{"type":"Feature","properties":{"name":"Hostel 3A","kind":"building","sort_key":20,"minzoom":16},"geometry":{"type":"Point","coordinates":[77.57098,28.525304]}},{"type":"Feature","properties":{"name":"Hostel 3B","kind":"building","sort_key":20,"minzoom":16},"geometry":{"type":"Point","coordinates":[77.570729,28.524764]}},{"type":"Feature","properties":{"name":"Hostel 3C","kind":"building","sort_key":20,"minzoom":16},"geometry":{"type":"Point","coordinates":[77.571432,28.524826]}},{"type":"Feature","properties":{"name":"Management Block","kind":"building","sort_key":20,"minzoom":16},"geometry":{"type":"Point","coordinates":[77.574315,28.528137]}},{"type":"Feature","properties":{"name":"Research Annexe","kind":"building","sort_key":20,"minzoom":16},"geometry":{"type":"Point","coordinates":[77.578603,28.527447]}},{"type":"Feature","properties":{"name":"Auctus Supermarket","kind":"building","sort_key":30,"minzoom":16.5},"geometry":{"type":"Point","coordinates":[77.572823,28.527363]}},{"type":"Feature","properties":{"name":"Dining Hall 1","kind":"building","sort_key":30,"minzoom":16.5},"geometry":{"type":"Point","coordinates":[77.573467,28.523772]}},{"type":"Feature","properties":{"name":"Dining Hall 2","kind":"building","sort_key":30,"minzoom":16.5},"geometry":{"type":"Point","coordinates":[77.570231,28.524481]}},{"type":"Feature","properties":{"name":"Dining Hall 3","kind":"building","sort_key":30,"minzoom":16.5},"geometry":{"type":"Point","coordinates":[77.569682,28.52325]}},{"type":"Feature","properties":{"name":"Health and wellness centre, SNU","kind":"building","sort_key":30,"minzoom":16.5},"geometry":{"type":"Point","coordinates":[77.572649,28.527071]}},{"type":"Feature","properties":{"name":"Pharmacy","kind":"building","sort_key":30,"minzoom":16.5},"geometry":{"type":"Point","coordinates":[77.572698,28.527536]}},{"type":"Feature","properties":{"name":"Shiv Nadar University Post Office","kind":"building","sort_key":30,"minzoom":16.5},"geometry":{"type":"Point","coordinates":[77.57604,28.532855]}},{"type":"Feature","properties":{"name":"Amphitheatre","kind":"poi","sort_key":40,"minzoom":16},"geometry":{"type":"Point","coordinates":[77.574063,28.524021]}},{"type":"Feature","properties":{"name":"Cricket Ground","kind":"sport","sort_key":40,"minzoom":16},"geometry":{"type":"Point","coordinates":[77.572974,28.525969]}},{"type":"Feature","properties":{"name":"Football Ground","kind":"sport","sort_key":40,"minzoom":16},"geometry":{"type":"Point","coordinates":[77.571422,28.52234]}},{"type":"Feature","properties":{"name":"Golf Course","kind":"sport","sort_key":40,"minzoom":16},"geometry":{"type":"Point","coordinates":[77.572681,28.528998]}},{"type":"Feature","properties":{"name":"Lake SNU","kind":"water","sort_key":40,"minzoom":16},"geometry":{"type":"Point","coordinates":[77.57777,28.525121]}},{"type":"Feature","properties":{"name":"SNU Biodiversity Park","kind":"poi","sort_key":40,"minzoom":16},"geometry":{"type":"Point","coordinates":[77.576184,28.521413]}},{"type":"Feature","properties":{"name":"Shivaji park","kind":"poi","sort_key":40,"minzoom":16},"geometry":{"type":"Point","coordinates":[77.571224,28.526091]}},{"type":"Feature","properties":{"name":"Badminton Courts","kind":"sport","sort_key":50,"minzoom":17},"geometry":{"type":"Point","coordinates":[77.572199,28.525162]}},{"type":"Feature","properties":{"name":"Basketball Court","kind":"sport","sort_key":50,"minzoom":17},"geometry":{"type":"Point","coordinates":[77.571914,28.525135]}},{"type":"Feature","properties":{"name":"Basketball Courts","kind":"sport","sort_key":50,"minzoom":17},"geometry":{"type":"Point","coordinates":[77.571026,28.524179]}},{"type":"Feature","properties":{"name":"Chess Garden","kind":"sport","sort_key":50,"minzoom":17},"geometry":{"type":"Point","coordinates":[77.572065,28.523904]}},{"type":"Feature","properties":{"name":"Squash Courts","kind":"sport","sort_key":50,"minzoom":17},"geometry":{"type":"Point","coordinates":[77.571731,28.523935]}},{"type":"Feature","properties":{"name":"Tennis Courts","kind":"sport","sort_key":50,"minzoom":17},"geometry":{"type":"Point","coordinates":[77.571436,28.524038]}},{"type":"Feature","properties":{"name":"Volleyball Court","kind":"sport","sort_key":50,"minzoom":17},"geometry":{"type":"Point","coordinates":[77.571691,28.524426]}},{"type":"Feature","properties":{"name":"Entrance Security Office","kind":"building","sort_key":60,"minzoom":16.5},"geometry":{"type":"Point","coordinates":[77.576255,28.533412]}},{"type":"Feature","properties":{"name":"Parking 1","kind":"parking","sort_key":60,"minzoom":16.5},"geometry":{"type":"Point","coordinates":[77.574374,28.524305]}},{"type":"Feature","properties":{"name":"SNU Gate No. 1","kind":"gate","sort_key":60,"minzoom":16.5},"geometry":{"type":"Point","coordinates":[77.576302,28.533458]}},{"type":"Feature","properties":{"name":"SNU Gate No. 2","kind":"gate","sort_key":60,"minzoom":16.5},"geometry":{"type":"Point","coordinates":[77.580924,28.53043]}},{"type":"Feature","properties":{"name":"Belleza","kind":"poi","sort_key":70,"minzoom":17.5},"geometry":{"type":"Point","coordinates":[77.571559,28.524801]}},{"type":"Feature","properties":{"name":"HDFC Bank","kind":"poi","sort_key":70,"minzoom":17.5},"geometry":{"type":"Point","coordinates":[77.571606,28.524713]}},{"type":"Feature","properties":{"name":"Mini Mart","kind":"poi","sort_key":70,"minzoom":17.5},"geometry":{"type":"Point","coordinates":[77.571633,28.524775]}},{"type":"Feature","properties":{"name":"PNB ATM","kind":"poi","sort_key":70,"minzoom":17.5},"geometry":{"type":"Point","coordinates":[77.575793,28.526193]}},{"type":"Feature","properties":{"name":"Stage","kind":"poi","sort_key":70,"minzoom":17.5},"geometry":{"type":"Point","coordinates":[77.572102,28.525761]}},{"type":"Feature","properties":{"name":"The Lonely Tree","kind":"poi","sort_key":70,"minzoom":17.5},"geometry":{"type":"Point","coordinates":[77.575132,28.52687]}}]}