{
 "type": "FeatureCollection",
 "features": [
  {
   "type": "Feature",
   "properties": {
    "route_id": "SNU_R1",
    "name": "route 1: football-ground road, Hostel 2B (A) -> Indoor Sports Complex junction (B)",
    "osm_ways": [
     547215901,
     547215900
    ],
    "length_m": 339,
    "overhang_m": 15,
    "anchor_A": [
     28.522683,
     77.57399
    ],
    "anchor_B": [
     28.521553,
     77.571598
    ],
    "s_A": 15.0,
    "s_B": 334.9
   },
   "geometry": {
    "type": "LineString",
    "coordinates": [
     [
      77.57399397711987,
      28.52282680990939
     ],
     [
      77.57393680740249,
      28.52270177582568
     ],
     [
      77.5739012,
      28.5226239
     ],
     [
      77.5738571,
      28.5225367
     ],
     [
      77.573813,
      28.5224852
     ],
     [
      77.5737441,
      28.5224366
     ],
     [
      77.5736372,
      28.5223857
     ],
     [
      77.5734871,
      28.5223368
     ],
     [
      77.5733395,
      28.5223114
     ],
     [
      77.5732846,
      28.5223308
     ],
     [
      77.573245,
      28.5223703
     ],
     [
      77.5732012,
      28.5224325
     ],
     [
      77.5731733,
      28.5223617
     ],
     [
      77.5731418,
      28.522306
     ],
     [
      77.5730959,
      28.5222769
     ],
     [
      77.5730274,
      28.5222544
     ],
     [
      77.5729756,
      28.5222567
     ],
     [
      77.5729375,
      28.5222699
     ],
     [
      77.5728786,
      28.5223089
     ],
     [
      77.5728034,
      28.5223487
     ],
     [
      77.5726549,
      28.5224063
     ],
     [
      77.5724944,
      28.5224196
     ],
     [
      77.5723309,
      28.5223933
     ],
     [
      77.5722418,
      28.5223501
     ],
     [
      77.5721861,
      28.5223231
     ],
     [
      77.5720533,
      28.5222311
     ],
     [
      77.5720339,
      28.522209
     ],
     [
      77.5719631,
      28.5221281
     ],
     [
      77.5719065,
      28.5219957
     ],
     [
      77.5718413,
      28.5218839
     ],
     [
      77.5717967,
      28.5218226
     ],
     [
      77.571743,
      28.5217604
     ],
     [
      77.5716826,
      28.5217059
     ],
     [
      77.5716045,
      28.5216324
     ],
     [
      77.5715628,
      28.5215836
     ],
     [
      77.5715566880845,
      28.521574558027634
     ],
     [
      77.5715361,
      28.5215441
     ]
    ]
   }
  }
 ]
}